; BIOPRINTER PREVIEW ONLY - SYNTHETIC/UNAPPROVED
; mm, absolute XYZ in centered machine frame; relative calibrated E
G21
G90
M83
G1 X0.000000 Y0.000000 Z2.600000 F480.000000
G1 X21.450000 Y70.450000 Z2.600000 F1800.000000
G1 X21.450000 Y70.450000 Z0.600000 F480.000000
G1 X21.937879 Y70.450000 Z0.600000 E0.002439394 F480.000000
G1 X22.425758 Y70.450000 Z0.600000 E0.002439394 F480.000000
G1 X22.913636 Y70.450000 Z0.600000 E0.002439394 F480.000000
G1 X23.401515 Y70.450000 Z0.600000 E0.002439394 F480.000000
G1 X23.889394 Y70.450000 Z0.600000 E0.002439394 F480.000000
G1 X24.377273 Y70.450000 Z0.600000 E0.002439394 F480.000000
G1 X24.865152 Y70.450000 Z0.600000 E0.002439394 F480.000000
G1 X25.353030 Y70.450000 Z0.600000 E0.002439394 F480.000000
G1 X25.840909 Y70.450000 Z0.600000 E0.002439394 F480.000000
G1 X26.328788 Y70.450000 Z0.600000 E0.002439394 F480.000000
G1 X26.816667 Y70.450000 Z0.600000 E0.002439394 F480.000000
G1 X27.304545 Y70.450000 Z0.600000 E0.002439394 F480.000000
G1 X27.792424 Y70.450000 Z0.600000 E0.002439394 F480.000000
G1 X28.280303 Y70.450000 Z0.600000 E0.002439394 F480.000000
G1 X28.768182 Y70.450000 Z0.600000 E0.002439394 F480.000000
G1 X29.256061 Y70.450000 Z0.600000 E0.002439394 F480.000000
G1 X29.743939 Y70.450000 Z0.600000 E0.002439394 F480.000000
G1 X30.231818 Y70.450000 Z0.600000 E0.002439394 F480.000000
G1 X30.719697 Y70.450000 Z0.600000 E0.002439394 F480.000000
G1 X31.207576 Y70.450000 Z0.600000 E0.002439394 F480.000000
G1 X31.695455 Y70.450000 Z0.600000 E0.002439394 F480.000000
G1 X32.183333 Y70.450000 Z0.600000 E0.002439394 F480.000000
G1 X32.671212 Y70.450000 Z0.600000 E0.002439394 F480.000000
G1 X33.159091 Y70.450000 Z0.600000 E0.002439394 F480.000000
G1 X33.646970 Y70.450000 Z0.600000 E0.002439394 F480.000000
G1 X34.134848 Y70.450000 Z0.600000 E0.002439394 F480.000000
G1 X34.622727 Y70.450000 Z0.600000 E0.002439394 F480.000000
G1 X35.110606 Y70.450000 Z0.600000 E0.002439394 F480.000000
G1 X35.598485 Y70.450000 Z0.600000 E0.002439394 F480.000000
G1 X36.086364 Y70.450000 Z0.600000 E0.002439394 F480.000000
G1 X36.574242 Y70.450000 Z0.600000 E0.002439394 F480.000000
G1 X37.062121 Y70.450000 Z0.600000 E0.002439394 F480.000000
G1 X37.550000 Y70.450000 Z0.600000 E0.002439394 F480.000000
G1 X37.550000 Y69.962121 Z0.600000 E0.002439394 F480.000000
G1 X37.550000 Y69.474242 Z0.600000 E0.002439394 F480.000000
G1 X37.550000 Y68.986364 Z0.600000 E0.002439394 F480.000000
G1 X37.550000 Y68.498485 Z0.600000 E0.002439394 F480.000000
G1 X37.550000 Y68.010606 Z0.600000 E0.002439394 F480.000000
G1 X37.550000 Y67.522727 Z0.600000 E0.002439394 F480.000000
G1 X37.550000 Y67.034848 Z0.600000 E0.002439394 F480.000000
G1 X37.550000 Y66.546970 Z0.600000 E0.002439394 F480.000000
G1 X37.550000 Y66.059091 Z0.600000 E0.002439394 F480.000000
G1 X37.550000 Y65.571212 Z0.600000 E0.002439394 F480.000000
G1 X37.550000 Y65.083333 Z0.600000 E0.002439394 F480.000000
G1 X37.550000 Y64.595455 Z0.600000 E0.002439394 F480.000000
G1 X37.550000 Y64.107576 Z0.600000 E0.002439394 F480.000000
G1 X37.550000 Y63.619697 Z0.600000 E0.002439394 F480.000000
G1 X37.550000 Y63.131818 Z0.600000 E0.002439394 F480.000000
G1 X37.550000 Y62.643939 Z0.600000 E0.002439394 F480.000000
G1 X37.550000 Y62.156061 Z0.600000 E0.002439394 F480.000000
G1 X37.550000 Y61.668182 Z0.600000 E0.002439394 F480.000000
G1 X37.550000 Y61.180303 Z0.600000 E0.002439394 F480.000000
G1 X37.550000 Y60.692424 Z0.600000 E0.002439394 F480.000000
G1 X37.550000 Y60.204545 Z0.600000 E0.002439394 F480.000000
G1 X37.550000 Y59.716667 Z0.600000 E0.002439394 F480.000000
G1 X37.550000 Y59.228788 Z0.600000 E0.002439394 F480.000000
G1 X37.550000 Y58.740909 Z0.600000 E0.002439394 F480.000000
G1 X37.550000 Y58.253030 Z0.600000 E0.002439394 F480.000000
G1 X37.550000 Y57.765152 Z0.600000 E0.002439394 F480.000000
G1 X37.550000 Y57.277273 Z0.600000 E0.002439394 F480.000000
G1 X37.550000 Y56.789394 Z0.600000 E0.002439394 F480.000000
G1 X37.550000 Y56.301515 Z0.600000 E0.002439394 F480.000000
G1 X37.550000 Y55.813636 Z0.600000 E0.002439394 F480.000000
G1 X37.550000 Y55.325758 Z0.600000 E0.002439394 F480.000000
G1 X37.550000 Y54.837879 Z0.600000 E0.002439394 F480.000000
G1 X37.550000 Y54.350000 Z0.600000 E0.002439394 F480.000000
G1 X37.062121 Y54.350000 Z0.600000 E0.002439394 F480.000000
G1 X36.574242 Y54.350000 Z0.600000 E0.002439394 F480.000000
G1 X36.086364 Y54.350000 Z0.600000 E0.002439394 F480.000000
G1 X35.598485 Y54.350000 Z0.600000 E0.002439394 F480.000000
G1 X35.110606 Y54.350000 Z0.600000 E0.002439394 F480.000000
G1 X34.622727 Y54.350000 Z0.600000 E0.002439394 F480.000000
G1 X34.134848 Y54.350000 Z0.600000 E0.002439394 F480.000000
G1 X33.646970 Y54.350000 Z0.600000 E0.002439394 F480.000000
G1 X33.159091 Y54.350000 Z0.600000 E0.002439394 F480.000000
G1 X32.671212 Y54.350000 Z0.600000 E0.002439394 F480.000000
G1 X32.183333 Y54.350000 Z0.600000 E0.002439394 F480.000000
G1 X31.695455 Y54.350000 Z0.600000 E0.002439394 F480.000000
G1 X31.207576 Y54.350000 Z0.600000 E0.002439394 F480.000000
G1 X30.719697 Y54.350000 Z0.600000 E0.002439394 F480.000000
G1 X30.231818 Y54.350000 Z0.600000 E0.002439394 F480.000000
G1 X29.743939 Y54.350000 Z0.600000 E0.002439394 F480.000000
G1 X29.256061 Y54.350000 Z0.600000 E0.002439394 F480.000000
G1 X28.768182 Y54.350000 Z0.600000 E0.002439394 F480.000000
G1 X28.280303 Y54.350000 Z0.600000 E0.002439394 F480.000000
G1 X27.792424 Y54.350000 Z0.600000 E0.002439394 F480.000000
G1 X27.304545 Y54.350000 Z0.600000 E0.002439394 F480.000000
G1 X26.816667 Y54.350000 Z0.600000 E0.002439394 F480.000000
G1 X26.328788 Y54.350000 Z0.600000 E0.002439394 F480.000000
G1 X25.840909 Y54.350000 Z0.600000 E0.002439394 F480.000000
G1 X25.353030 Y54.350000 Z0.600000 E0.002439394 F480.000000
G1 X24.865152 Y54.350000 Z0.600000 E0.002439394 F480.000000
G1 X24.377273 Y54.350000 Z0.600000 E0.002439394 F480.000000
G1 X23.889394 Y54.350000 Z0.600000 E0.002439394 F480.000000
G1 X23.401515 Y54.350000 Z0.600000 E0.002439394 F480.000000
G1 X22.913636 Y54.350000 Z0.600000 E0.002439394 F480.000000
G1 X22.425758 Y54.350000 Z0.600000 E0.002439394 F480.000000
G1 X21.937879 Y54.350000 Z0.600000 E0.002439394 F480.000000
G1 X21.450000 Y54.350000 Z0.600000 E0.002439394 F480.000000
G1 X21.450000 Y54.837879 Z0.600000 E0.002439394 F480.000000
G1 X21.450000 Y55.325758 Z0.600000 E0.002439394 F480.000000
G1 X21.450000 Y55.813636 Z0.600000 E0.002439394 F480.000000
G1 X21.450000 Y56.301515 Z0.600000 E0.002439394 F480.000000
G1 X21.450000 Y56.789394 Z0.600000 E0.002439394 F480.000000
G1 X21.450000 Y57.277273 Z0.600000 E0.002439394 F480.000000
G1 X21.450000 Y57.765152 Z0.600000 E0.002439394 F480.000000
G1 X21.450000 Y58.253030 Z0.600000 E0.002439394 F480.000000
G1 X21.450000 Y58.740909 Z0.600000 E0.002439394 F480.000000
G1 X21.450000 Y59.228788 Z0.600000 E0.002439394 F480.000000
G1 X21.450000 Y59.716667 Z0.600000 E0.002439394 F480.000000
G1 X21.450000 Y60.204545 Z0.600000 E0.002439394 F480.000000
G1 X21.450000 Y60.692424 Z0.600000 E0.002439394 F480.000000
G1 X21.450000 Y61.180303 Z0.600000 E0.002439394 F480.000000
G1 X21.450000 Y61.668182 Z0.600000 E0.002439394 F480.000000
G1 X21.450000 Y62.156061 Z0.600000 E0.002439394 F480.000000
G1 X21.450000 Y62.643939 Z0.600000 E0.002439394 F480.000000
G1 X21.450000 Y63.131818 Z0.600000 E0.002439394 F480.000000
G1 X21.450000 Y63.619697 Z0.600000 E0.002439394 F480.000000
G1 X21.450000 Y64.107576 Z0.600000 E0.002439394 F480.000000
G1 X21.450000 Y64.595455 Z0.600000 E0.002439394 F480.000000
G1 X21.450000 Y65.083333 Z0.600000 E0.002439394 F480.000000
G1 X21.450000 Y65.571212 Z0.600000 E0.002439394 F480.000000
G1 X21.450000 Y66.059091 Z0.600000 E0.002439394 F480.000000
G1 X21.450000 Y66.546970 Z0.600000 E0.002439394 F480.000000
G1 X21.450000 Y67.034848 Z0.600000 E0.002439394 F480.000000
G1 X21.450000 Y67.522727 Z0.600000 E0.002439394 F480.000000
G1 X21.450000 Y68.010606 Z0.600000 E0.002439394 F480.000000
G1 X21.450000 Y68.498485 Z0.600000 E0.002439394 F480.000000
G1 X21.450000 Y68.986364 Z0.600000 E0.002439394 F480.000000
G1 X21.450000 Y69.474242 Z0.600000 E0.002439394 F480.000000
G1 X21.450000 Y69.962121 Z0.600000 E0.002439394 F480.000000
G1 X21.450000 Y70.450000 Z0.600000 E0.002439394 F480.000000
G1 X21.450000 Y70.450000 Z2.600000 F480.000000
G1 X24.950000 Y66.557107 Z2.600000 F1800.000000
G1 X24.950000 Y66.557107 Z0.600000 F480.000000
G1 X24.950000 Y66.068035 Z0.600000 E0.002445357 F480.000000
G1 X24.950000 Y65.578964 Z0.600000 E0.002445357 F480.000000
G1 X24.950000 Y65.089893 Z0.600000 E0.002445357 F480.000000
G1 X24.950000 Y64.600821 Z0.600000 E0.002445357 F480.000000
G1 X24.950000 Y64.111750 Z0.600000 E0.002445357 F480.000000
G1 X24.950000 Y63.622678 Z0.600000 E0.002445357 F480.000000
G1 X24.950000 Y63.133607 Z0.600000 E0.002445357 F480.000000
G1 X24.950000 Y62.644536 Z0.600000 E0.002445357 F480.000000
G1 X24.950000 Y62.155464 Z0.600000 E0.002445357 F480.000000
G1 X24.950000 Y61.666393 Z0.600000 E0.002445357 F480.000000
G1 X24.950000 Y61.177322 Z0.600000 E0.002445357 F480.000000
G1 X24.950000 Y60.688250 Z0.600000 E0.002445357 F480.000000
G1 X24.950000 Y60.199179 Z0.600000 E0.002445357 F480.000000
G1 X24.950000 Y59.710107 Z0.600000 E0.002445357 F480.000000
G1 X24.950000 Y59.221036 Z0.600000 E0.002445357 F480.000000
G1 X24.950000 Y58.731965 Z0.600000 E0.002445357 F480.000000
G1 X24.950000 Y58.242893 Z0.600000 E0.002445357 F480.000000
G1 X25.146447 Y58.046447 Z0.600000 E0.001389087 F480.000000
G1 X25.342893 Y57.850000 Z0.600000 E0.001389087 F480.000000
G1 X25.831965 Y57.850000 Z0.600000 E0.002445357 F480.000000
G1 X26.321036 Y57.850000 Z0.600000 E0.002445357 F480.000000
G1 X26.810107 Y57.850000 Z0.600000 E0.002445357 F480.000000
G1 X27.299179 Y57.850000 Z0.600000 E0.002445357 F480.000000
G1 X27.788250 Y57.850000 Z0.600000 E0.002445357 F480.000000
G1 X28.277322 Y57.850000 Z0.600000 E0.002445357 F480.000000
G1 X28.766393 Y57.850000 Z0.600000 E0.002445357 F480.000000
G1 X29.255464 Y57.850000 Z0.600000 E0.002445357 F480.000000
G1 X29.744536 Y57.850000 Z0.600000 E0.002445357 F480.000000
G1 X30.233607 Y57.850000 Z0.600000 E0.002445357 F480.000000
G1 X30.722678 Y57.850000 Z0.600000 E0.002445357 F480.000000
G1 X31.211750 Y57.850000 Z0.600000 E0.002445357 F480.000000
G1 X31.700821 Y57.850000 Z0.600000 E0.002445357 F480.000000
G1 X32.189893 Y57.850000 Z0.600000 E0.002445357 F480.000000
G1 X32.678964 Y57.850000 Z0.600000 E0.002445357 F480.000000
G1 X33.168035 Y57.850000 Z0.600000 E0.002445357 F480.000000
G1 X33.657107 Y57.850000 Z0.600000 E0.002445357 F480.000000
G1 X33.853553 Y58.046447 Z0.600000 E0.001389087 F480.000000
G1 X34.050000 Y58.242893 Z0.600000 E0.001389087 F480.000000
G1 X34.050000 Y58.731965 Z0.600000 E0.002445357 F480.000000
G1 X34.050000 Y59.221036 Z0.600000 E0.002445357 F480.000000
G1 X34.050000 Y59.710107 Z0.600000 E0.002445357 F480.000000
G1 X34.050000 Y60.199179 Z0.600000 E0.002445357 F480.000000
G1 X34.050000 Y60.688250 Z0.600000 E0.002445357 F480.000000
G1 X34.050000 Y61.177322 Z0.600000 E0.002445357 F480.000000
G1 X34.050000 Y61.666393 Z0.600000 E0.002445357 F480.000000
G1 X34.050000 Y62.155464 Z0.600000 E0.002445357 F480.000000
G1 X34.050000 Y62.644536 Z0.600000 E0.002445357 F480.000000
G1 X34.050000 Y63.133607 Z0.600000 E0.002445357 F480.000000
G1 X34.050000 Y63.622678 Z0.600000 E0.002445357 F480.000000
G1 X34.050000 Y64.111750 Z0.600000 E0.002445357 F480.000000
G1 X34.050000 Y64.600821 Z0.600000 E0.002445357 F480.000000
G1 X34.050000 Y65.089893 Z0.600000 E0.002445357 F480.000000
G1 X34.050000 Y65.578964 Z0.600000 E0.002445357 F480.000000
G1 X34.050000 Y66.068035 Z0.600000 E0.002445357 F480.000000
G1 X34.050000 Y66.557107 Z0.600000 E0.002445357 F480.000000
G1 X33.853553 Y66.753553 Z0.600000 E0.001389087 F480.000000
G1 X33.657107 Y66.950000 Z0.600000 E0.001389087 F480.000000
G1 X33.168035 Y66.950000 Z0.600000 E0.002445357 F480.000000
G1 X32.678964 Y66.950000 Z0.600000 E0.002445357 F480.000000
G1 X32.189893 Y66.950000 Z0.600000 E0.002445357 F480.000000
G1 X31.700821 Y66.950000 Z0.600000 E0.002445357 F480.000000
G1 X31.211750 Y66.950000 Z0.600000 E0.002445357 F480.000000
G1 X30.722678 Y66.950000 Z0.600000 E0.002445357 F480.000000
G1 X30.233607 Y66.950000 Z0.600000 E0.002445357 F480.000000
G1 X29.744536 Y66.950000 Z0.600000 E0.002445357 F480.000000
G1 X29.255464 Y66.950000 Z0.600000 E0.002445357 F480.000000
G1 X28.766393 Y66.950000 Z0.600000 E0.002445357 F480.000000
G1 X28.277322 Y66.950000 Z0.600000 E0.002445357 F480.000000
G1 X27.788250 Y66.950000 Z0.600000 E0.002445357 F480.000000
G1 X27.299179 Y66.950000 Z0.600000 E0.002445357 F480.000000
G1 X26.810107 Y66.950000 Z0.600000 E0.002445357 F480.000000
G1 X26.321036 Y66.950000 Z0.600000 E0.002445357 F480.000000
G1 X25.831965 Y66.950000 Z0.600000 E0.002445357 F480.000000
G1 X25.342893 Y66.950000 Z0.600000 E0.002445357 F480.000000
G1 X25.146447 Y66.753553 Z0.600000 E0.001389087 F480.000000
G1 X24.950000 Y66.557107 Z0.600000 E0.001389087 F480.000000
G1 X24.950000 Y66.557107 Z2.600000 F480.000000
G1 X22.450000 Y56.616667 Z2.600000 F1800.000000
G1 X22.450000 Y56.616667 Z0.600000 F480.000000
G1 X22.936207 Y56.616667 Z0.600000 E0.002431034 F480.000000
G1 X23.422414 Y56.616667 Z0.600000 E0.002431034 F480.000000
G1 X23.908621 Y56.616667 Z0.600000 E0.002431034 F480.000000
G1 X24.394828 Y56.616667 Z0.600000 E0.002431034 F480.000000
G1 X24.881034 Y56.616667 Z0.600000 E0.002431034 F480.000000
G1 X25.367241 Y56.616667 Z0.600000 E0.002431034 F480.000000
G1 X25.853448 Y56.616667 Z0.600000 E0.002431034 F480.000000
G1 X26.339655 Y56.616667 Z0.600000 E0.002431034 F480.000000
G1 X26.825862 Y56.616667 Z0.600000 E0.002431034 F480.000000
G1 X27.312069 Y56.616667 Z0.600000 E0.002431034 F480.000000
G1 X27.798276 Y56.616667 Z0.600000 E0.002431034 F480.000000
G1 X28.284483 Y56.616667 Z0.600000 E0.002431034 F480.000000
G1 X28.770690 Y56.616667 Z0.600000 E0.002431034 F480.000000
G1 X29.256897 Y56.616667 Z0.600000 E0.002431034 F480.000000
G1 X29.743103 Y56.616667 Z0.600000 E0.002431034 F480.000000
G1 X30.229310 Y56.616667 Z0.600000 E0.002431034 F480.000000
G1 X30.715517 Y56.616667 Z0.600000 E0.002431034 F480.000000
G1 X31.201724 Y56.616667 Z0.600000 E0.002431034 F480.000000
G1 X31.687931 Y56.616667 Z0.600000 E0.002431034 F480.000000
G1 X32.174138 Y56.616667 Z0.600000 E0.002431034 F480.000000
G1 X32.660345 Y56.616667 Z0.600000 E0.002431034 F480.000000
G1 X33.146552 Y56.616667 Z0.600000 E0.002431034 F480.000000
G1 X33.632759 Y56.616667 Z0.600000 E0.002431034 F480.000000
G1 X34.118966 Y56.616667 Z0.600000 E0.002431034 F480.000000
G1 X34.605172 Y56.616667 Z0.600000 E0.002431034 F480.000000
G1 X35.091379 Y56.616667 Z0.600000 E0.002431034 F480.000000
G1 X35.577586 Y56.616667 Z0.600000 E0.002431034 F480.000000
G1 X36.063793 Y56.616667 Z0.600000 E0.002431034 F480.000000
G1 X36.550000 Y56.616667 Z0.600000 E0.002431034 F480.000000
G1 X36.550000 Y56.616667 Z2.600000 F480.000000
G1 X23.950000 Y63.283333 Z2.600000 F1800.000000
G1 X23.950000 Y63.283333 Z0.600000 F480.000000
G1 X23.450000 Y63.283333 Z0.600000 E0.002500000 F480.000000
G1 X22.950000 Y63.283333 Z0.600000 E0.002500000 F480.000000
G1 X22.450000 Y63.283333 Z0.600000 E0.002500000 F480.000000
G1 X22.450000 Y63.283333 Z2.600000 F480.000000
G1 X35.050000 Y63.283333 Z2.600000 F1800.000000
G1 X35.050000 Y63.283333 Z0.600000 F480.000000
G1 X35.550000 Y63.283333 Z0.600000 E0.002500000 F480.000000
G1 X36.050000 Y63.283333 Z0.600000 E0.002500000 F480.000000
G1 X36.550000 Y63.283333 Z0.600000 E0.002500000 F480.000000
G1 X36.550000 Y63.283333 Z2.500000 F480.000000
