; BIOPRINTER PREVIEW ONLY - SYNTHETIC/UNAPPROVED
; mm, absolute XYZ in centered machine frame; relative calibrated E
G21
G90
M83
G1 X36.550000 Y-61.716667 Z2.600000 F480.000000
G1 X-38.550000 Y-54.550000 Z2.600000 F1800.000000
G1 X-38.550000 Y-54.550000 Z0.600000 F480.000000
G1 X-38.062121 Y-54.550000 Z0.600000 E0.002439394 F480.000000
G1 X-37.574242 Y-54.550000 Z0.600000 E0.002439394 F480.000000
G1 X-37.086364 Y-54.550000 Z0.600000 E0.002439394 F480.000000
G1 X-36.598485 Y-54.550000 Z0.600000 E0.002439394 F480.000000
G1 X-36.110606 Y-54.550000 Z0.600000 E0.002439394 F480.000000
G1 X-35.622727 Y-54.550000 Z0.600000 E0.002439394 F480.000000
G1 X-35.134848 Y-54.550000 Z0.600000 E0.002439394 F480.000000
G1 X-34.646970 Y-54.550000 Z0.600000 E0.002439394 F480.000000
G1 X-34.159091 Y-54.550000 Z0.600000 E0.002439394 F480.000000
G1 X-33.671212 Y-54.550000 Z0.600000 E0.002439394 F480.000000
G1 X-33.183333 Y-54.550000 Z0.600000 E0.002439394 F480.000000
G1 X-32.695455 Y-54.550000 Z0.600000 E0.002439394 F480.000000
G1 X-32.207576 Y-54.550000 Z0.600000 E0.002439394 F480.000000
G1 X-31.719697 Y-54.550000 Z0.600000 E0.002439394 F480.000000
G1 X-31.231818 Y-54.550000 Z0.600000 E0.002439394 F480.000000
G1 X-30.743939 Y-54.550000 Z0.600000 E0.002439394 F480.000000
G1 X-30.256061 Y-54.550000 Z0.600000 E0.002439394 F480.000000
G1 X-29.768182 Y-54.550000 Z0.600000 E0.002439394 F480.000000
G1 X-29.280303 Y-54.550000 Z0.600000 E0.002439394 F480.000000
G1 X-28.792424 Y-54.550000 Z0.600000 E0.002439394 F480.000000
G1 X-28.304545 Y-54.550000 Z0.600000 E0.002439394 F480.000000
G1 X-27.816667 Y-54.550000 Z0.600000 E0.002439394 F480.000000
G1 X-27.328788 Y-54.550000 Z0.600000 E0.002439394 F480.000000
G1 X-26.840909 Y-54.550000 Z0.600000 E0.002439394 F480.000000
G1 X-26.353030 Y-54.550000 Z0.600000 E0.002439394 F480.000000
G1 X-25.865152 Y-54.550000 Z0.600000 E0.002439394 F480.000000
G1 X-25.377273 Y-54.550000 Z0.600000 E0.002439394 F480.000000
G1 X-24.889394 Y-54.550000 Z0.600000 E0.002439394 F480.000000
G1 X-24.401515 Y-54.550000 Z0.600000 E0.002439394 F480.000000
G1 X-23.913636 Y-54.550000 Z0.600000 E0.002439394 F480.000000
G1 X-23.425758 Y-54.550000 Z0.600000 E0.002439394 F480.000000
G1 X-22.937879 Y-54.550000 Z0.600000 E0.002439394 F480.000000
G1 X-22.450000 Y-54.550000 Z0.600000 E0.002439394 F480.000000
G1 X-22.450000 Y-55.037879 Z0.600000 E0.002439394 F480.000000
G1 X-22.450000 Y-55.525758 Z0.600000 E0.002439394 F480.000000
G1 X-22.450000 Y-56.013636 Z0.600000 E0.002439394 F480.000000
G1 X-22.450000 Y-56.501515 Z0.600000 E0.002439394 F480.000000
G1 X-22.450000 Y-56.989394 Z0.600000 E0.002439394 F480.000000
G1 X-22.450000 Y-57.477273 Z0.600000 E0.002439394 F480.000000
G1 X-22.450000 Y-57.965152 Z0.600000 E0.002439394 F480.000000
G1 X-22.450000 Y-58.453030 Z0.600000 E0.002439394 F480.000000
G1 X-22.450000 Y-58.940909 Z0.600000 E0.002439394 F480.000000
G1 X-22.450000 Y-59.428788 Z0.600000 E0.002439394 F480.000000
G1 X-22.450000 Y-59.916667 Z0.600000 E0.002439394 F480.000000
G1 X-22.450000 Y-60.404545 Z0.600000 E0.002439394 F480.000000
G1 X-22.450000 Y-60.892424 Z0.600000 E0.002439394 F480.000000
G1 X-22.450000 Y-61.380303 Z0.600000 E0.002439394 F480.000000
G1 X-22.450000 Y-61.868182 Z0.600000 E0.002439394 F480.000000
G1 X-22.450000 Y-62.356061 Z0.600000 E0.002439394 F480.000000
G1 X-22.450000 Y-62.843939 Z0.600000 E0.002439394 F480.000000
G1 X-22.450000 Y-63.331818 Z0.600000 E0.002439394 F480.000000
G1 X-22.450000 Y-63.819697 Z0.600000 E0.002439394 F480.000000
G1 X-22.450000 Y-64.307576 Z0.600000 E0.002439394 F480.000000
G1 X-22.450000 Y-64.795455 Z0.600000 E0.002439394 F480.000000
G1 X-22.450000 Y-65.283333 Z0.600000 E0.002439394 F480.000000
G1 X-22.450000 Y-65.771212 Z0.600000 E0.002439394 F480.000000
G1 X-22.450000 Y-66.259091 Z0.600000 E0.002439394 F480.000000
G1 X-22.450000 Y-66.746970 Z0.600000 E0.002439394 F480.000000
G1 X-22.450000 Y-67.234848 Z0.600000 E0.002439394 F480.000000
G1 X-22.450000 Y-67.722727 Z0.600000 E0.002439394 F480.000000
G1 X-22.450000 Y-68.210606 Z0.600000 E0.002439394 F480.000000
G1 X-22.450000 Y-68.698485 Z0.600000 E0.002439394 F480.000000
G1 X-22.450000 Y-69.186364 Z0.600000 E0.002439394 F480.000000
G1 X-22.450000 Y-69.674242 Z0.600000 E0.002439394 F480.000000
G1 X-22.450000 Y-70.162121 Z0.600000 E0.002439394 F480.000000
G1 X-22.450000 Y-70.650000 Z0.600000 E0.002439394 F480.000000
G1 X-22.937879 Y-70.650000 Z0.600000 E0.002439394 F480.000000
G1 X-23.425758 Y-70.650000 Z0.600000 E0.002439394 F480.000000
G1 X-23.913636 Y-70.650000 Z0.600000 E0.002439394 F480.000000
G1 X-24.401515 Y-70.650000 Z0.600000 E0.002439394 F480.000000
G1 X-24.889394 Y-70.650000 Z0.600000 E0.002439394 F480.000000
G1 X-25.377273 Y-70.650000 Z0.600000 E0.002439394 F480.000000
G1 X-25.865152 Y-70.650000 Z0.600000 E0.002439394 F480.000000
G1 X-26.353030 Y-70.650000 Z0.600000 E0.002439394 F480.000000
G1 X-26.840909 Y-70.650000 Z0.600000 E0.002439394 F480.000000
G1 X-27.328788 Y-70.650000 Z0.600000 E0.002439394 F480.000000
G1 X-27.816667 Y-70.650000 Z0.600000 E0.002439394 F480.000000
G1 X-28.304545 Y-70.650000 Z0.600000 E0.002439394 F480.000000
G1 X-28.792424 Y-70.650000 Z0.600000 E0.002439394 F480.000000
G1 X-29.280303 Y-70.650000 Z0.600000 E0.002439394 F480.000000
G1 X-29.768182 Y-70.650000 Z0.600000 E0.002439394 F480.000000
G1 X-30.256061 Y-70.650000 Z0.600000 E0.002439394 F480.000000
G1 X-30.743939 Y-70.650000 Z0.600000 E0.002439394 F480.000000
G1 X-31.231818 Y-70.650000 Z0.600000 E0.002439394 F480.000000
G1 X-31.719697 Y-70.650000 Z0.600000 E0.002439394 F480.000000
G1 X-32.207576 Y-70.650000 Z0.600000 E0.002439394 F480.000000
G1 X-32.695455 Y-70.650000 Z0.600000 E0.002439394 F480.000000
G1 X-33.183333 Y-70.650000 Z0.600000 E0.002439394 F480.000000
G1 X-33.671212 Y-70.650000 Z0.600000 E0.002439394 F480.000000
G1 X-34.159091 Y-70.650000 Z0.600000 E0.002439394 F480.000000
G1 X-34.646970 Y-70.650000 Z0.600000 E0.002439394 F480.000000
G1 X-35.134848 Y-70.650000 Z0.600000 E0.002439394 F480.000000
G1 X-35.622727 Y-70.650000 Z0.600000 E0.002439394 F480.000000
G1 X-36.110606 Y-70.650000 Z0.600000 E0.002439394 F480.000000
G1 X-36.598485 Y-70.650000 Z0.600000 E0.002439394 F480.000000
G1 X-37.086364 Y-70.650000 Z0.600000 E0.002439394 F480.000000
G1 X-37.574242 Y-70.650000 Z0.600000 E0.002439394 F480.000000
G1 X-38.062121 Y-70.650000 Z0.600000 E0.002439394 F480.000000
G1 X-38.550000 Y-70.650000 Z0.600000 E0.002439394 F480.000000
G1 X-38.550000 Y-70.162121 Z0.600000 E0.002439394 F480.000000
G1 X-38.550000 Y-69.674242 Z0.600000 E0.002439394 F480.000000
G1 X-38.550000 Y-69.186364 Z0.600000 E0.002439394 F480.000000
G1 X-38.550000 Y-68.698485 Z0.600000 E0.002439394 F480.000000
G1 X-38.550000 Y-68.210606 Z0.600000 E0.002439394 F480.000000
G1 X-38.550000 Y-67.722727 Z0.600000 E0.002439394 F480.000000
G1 X-38.550000 Y-67.234848 Z0.600000 E0.002439394 F480.000000
G1 X-38.550000 Y-66.746970 Z0.600000 E0.002439394 F480.000000
G1 X-38.550000 Y-66.259091 Z0.600000 E0.002439394 F480.000000
G1 X-38.550000 Y-65.771212 Z0.600000 E0.002439394 F480.000000
G1 X-38.550000 Y-65.283333 Z0.600000 E0.002439394 F480.000000
G1 X-38.550000 Y-64.795455 Z0.600000 E0.002439394 F480.000000
G1 X-38.550000 Y-64.307576 Z0.600000 E0.002439394 F480.000000
G1 X-38.550000 Y-63.819697 Z0.600000 E0.002439394 F480.000000
G1 X-38.550000 Y-63.331818 Z0.600000 E0.002439394 F480.000000
G1 X-38.550000 Y-62.843939 Z0.600000 E0.002439394 F480.000000
G1 X-38.550000 Y-62.356061 Z0.600000 E0.002439394 F480.000000
G1 X-38.550000 Y-61.868182 Z0.600000 E0.002439394 F480.000000
G1 X-38.550000 Y-61.380303 Z0.600000 E0.002439394 F480.000000
G1 X-38.550000 Y-60.892424 Z0.600000 E0.002439394 F480.000000
G1 X-38.550000 Y-60.404545 Z0.600000 E0.002439394 F480.000000
G1 X-38.550000 Y-59.916667 Z0.600000 E0.002439394 F480.000000
G1 X-38.550000 Y-59.428788 Z0.600000 E0.002439394 F480.000000
G1 X-38.550000 Y-58.940909 Z0.600000 E0.002439394 F480.000000
G1 X-38.550000 Y-58.453030 Z0.600000 E0.002439394 F480.000000
G1 X-38.550000 Y-57.965152 Z0.600000 E0.002439394 F480.000000
G1 X-38.550000 Y-57.477273 Z0.600000 E0.002439394 F480.000000
G1 X-38.550000 Y-56.989394 Z0.600000 E0.002439394 F480.000000
G1 X-38.550000 Y-56.501515 Z0.600000 E0.002439394 F480.000000
G1 X-38.550000 Y-56.013636 Z0.600000 E0.002439394 F480.000000
G1 X-38.550000 Y-55.525758 Z0.600000 E0.002439394 F480.000000
G1 X-38.550000 Y-55.037879 Z0.600000 E0.002439394 F480.000000
G1 X-38.550000 Y-54.550000 Z0.600000 E0.002439394 F480.000000
G1 X-38.550000 Y-54.550000 Z2.600000 F480.000000
G1 X-35.050000 Y-58.442893 Z2.600000 F1800.000000
G1 X-35.050000 Y-58.442893 Z0.600000 F480.000000
G1 X-35.050000 Y-58.931965 Z0.600000 E0.002445357 F480.000000
G1 X-35.050000 Y-59.421036 Z0.600000 E0.002445357 F480.000000
G1 X-35.050000 Y-59.910107 Z0.600000 E0.002445357 F480.000000
G1 X-35.050000 Y-60.399179 Z0.600000 E0.002445357 F480.000000
G1 X-35.050000 Y-60.888250 Z0.600000 E0.002445357 F480.000000
G1 X-35.050000 Y-61.377322 Z0.600000 E0.002445357 F480.000000
G1 X-35.050000 Y-61.866393 Z0.600000 E0.002445357 F480.000000
G1 X-35.050000 Y-62.355464 Z0.600000 E0.002445357 F480.000000
G1 X-35.050000 Y-62.844536 Z0.600000 E0.002445357 F480.000000
G1 X-35.050000 Y-63.333607 Z0.600000 E0.002445357 F480.000000
G1 X-35.050000 Y-63.822678 Z0.600000 E0.002445357 F480.000000
G1 X-35.050000 Y-64.311750 Z0.600000 E0.002445357 F480.000000
G1 X-35.050000 Y-64.800821 Z0.600000 E0.002445357 F480.000000
G1 X-35.050000 Y-65.289893 Z0.600000 E0.002445357 F480.000000
G1 X-35.050000 Y-65.778964 Z0.600000 E0.002445357 F480.000000
G1 X-35.050000 Y-66.268035 Z0.600000 E0.002445357 F480.000000
G1 X-35.050000 Y-66.757107 Z0.600000 E0.002445357 F480.000000
G1 X-34.853553 Y-66.953553 Z0.600000 E0.001389087 F480.000000
G1 X-34.657107 Y-67.150000 Z0.600000 E0.001389087 F480.000000
G1 X-34.168035 Y-67.150000 Z0.600000 E0.002445357 F480.000000
G1 X-33.678964 Y-67.150000 Z0.600000 E0.002445357 F480.000000
G1 X-33.189893 Y-67.150000 Z0.600000 E0.002445357 F480.000000
G1 X-32.700821 Y-67.150000 Z0.600000 E0.002445357 F480.000000
G1 X-32.211750 Y-67.150000 Z0.600000 E0.002445357 F480.000000
G1 X-31.722678 Y-67.150000 Z0.600000 E0.002445357 F480.000000
G1 X-31.233607 Y-67.150000 Z0.600000 E0.002445357 F480.000000
G1 X-30.744536 Y-67.150000 Z0.600000 E0.002445357 F480.000000
G1 X-30.255464 Y-67.150000 Z0.600000 E0.002445357 F480.000000
G1 X-29.766393 Y-67.150000 Z0.600000 E0.002445357 F480.000000
G1 X-29.277322 Y-67.150000 Z0.600000 E0.002445357 F480.000000
G1 X-28.788250 Y-67.150000 Z0.600000 E0.002445357 F480.000000
G1 X-28.299179 Y-67.150000 Z0.600000 E0.002445357 F480.000000
G1 X-27.810107 Y-67.150000 Z0.600000 E0.002445357 F480.000000
G1 X-27.321036 Y-67.150000 Z0.600000 E0.002445357 F480.000000
G1 X-26.831965 Y-67.150000 Z0.600000 E0.002445357 F480.000000
G1 X-26.342893 Y-67.150000 Z0.600000 E0.002445357 F480.000000
G1 X-26.146447 Y-66.953553 Z0.600000 E0.001389087 F480.000000
G1 X-25.950000 Y-66.757107 Z0.600000 E0.001389087 F480.000000
G1 X-25.950000 Y-66.268035 Z0.600000 E0.002445357 F480.000000
G1 X-25.950000 Y-65.778964 Z0.600000 E0.002445357 F480.000000
G1 X-25.950000 Y-65.289893 Z0.600000 E0.002445357 F480.000000
G1 X-25.950000 Y-64.800821 Z0.600000 E0.002445357 F480.000000
G1 X-25.950000 Y-64.311750 Z0.600000 E0.002445357 F480.000000
G1 X-25.950000 Y-63.822678 Z0.600000 E0.002445357 F480.000000
G1 X-25.950000 Y-63.333607 Z0.600000 E0.002445357 F480.000000
G1 X-25.950000 Y-62.844536 Z0.600000 E0.002445357 F480.000000
G1 X-25.950000 Y-62.355464 Z0.600000 E0.002445357 F480.000000
G1 X-25.950000 Y-61.866393 Z0.600000 E0.002445357 F480.000000
G1 X-25.950000 Y-61.377322 Z0.600000 E0.002445357 F480.000000
G1 X-25.950000 Y-60.888250 Z0.600000 E0.002445357 F480.000000
G1 X-25.950000 Y-60.399179 Z0.600000 E0.002445357 F480.000000
G1 X-25.950000 Y-59.910107 Z0.600000 E0.002445357 F480.000000
G1 X-25.950000 Y-59.421036 Z0.600000 E0.002445357 F480.000000
G1 X-25.950000 Y-58.931965 Z0.600000 E0.002445357 F480.000000
G1 X-25.950000 Y-58.442893 Z0.600000 E0.002445357 F480.000000
G1 X-26.146447 Y-58.246447 Z0.600000 E0.001389087 F480.000000
G1 X-26.342893 Y-58.050000 Z0.600000 E0.001389087 F480.000000
G1 X-26.831965 Y-58.050000 Z0.600000 E0.002445357 F480.000000
G1 X-27.321036 Y-58.050000 Z0.600000 E0.002445357 F480.000000
G1 X-27.810107 Y-58.050000 Z0.600000 E0.002445357 F480.000000
G1 X-28.299179 Y-58.050000 Z0.600000 E0.002445357 F480.000000
G1 X-28.788250 Y-58.050000 Z0.600000 E0.002445357 F480.000000
G1 X-29.277322 Y-58.050000 Z0.600000 E0.002445357 F480.000000
G1 X-29.766393 Y-58.050000 Z0.600000 E0.002445357 F480.000000
G1 X-30.255464 Y-58.050000 Z0.600000 E0.002445357 F480.000000
G1 X-30.744536 Y-58.050000 Z0.600000 E0.002445357 F480.000000
G1 X-31.233607 Y-58.050000 Z0.600000 E0.002445357 F480.000000
G1 X-31.722678 Y-58.050000 Z0.600000 E0.002445357 F480.000000
G1 X-32.211750 Y-58.050000 Z0.600000 E0.002445357 F480.000000
G1 X-32.700821 Y-58.050000 Z0.600000 E0.002445357 F480.000000
G1 X-33.189893 Y-58.050000 Z0.600000 E0.002445357 F480.000000
G1 X-33.678964 Y-58.050000 Z0.600000 E0.002445357 F480.000000
G1 X-34.168035 Y-58.050000 Z0.600000 E0.002445357 F480.000000
G1 X-34.657107 Y-58.050000 Z0.600000 E0.002445357 F480.000000
G1 X-34.853553 Y-58.246447 Z0.600000 E0.001389087 F480.000000
G1 X-35.050000 Y-58.442893 Z0.600000 E0.001389087 F480.000000
G1 X-35.050000 Y-58.442893 Z2.600000 F480.000000
G1 X-37.550000 Y-68.383333 Z2.600000 F1800.000000
G1 X-37.550000 Y-68.383333 Z0.600000 F480.000000
G1 X-37.063793 Y-68.383333 Z0.600000 E0.002431034 F480.000000
G1 X-36.577586 Y-68.383333 Z0.600000 E0.002431034 F480.000000
G1 X-36.091379 Y-68.383333 Z0.600000 E0.002431034 F480.000000
G1 X-35.605172 Y-68.383333 Z0.600000 E0.002431034 F480.000000
G1 X-35.118966 Y-68.383333 Z0.600000 E0.002431034 F480.000000
G1 X-34.632759 Y-68.383333 Z0.600000 E0.002431034 F480.000000
G1 X-34.146552 Y-68.383333 Z0.600000 E0.002431034 F480.000000
G1 X-33.660345 Y-68.383333 Z0.600000 E0.002431034 F480.000000
G1 X-33.174138 Y-68.383333 Z0.600000 E0.002431034 F480.000000
G1 X-32.687931 Y-68.383333 Z0.600000 E0.002431034 F480.000000
G1 X-32.201724 Y-68.383333 Z0.600000 E0.002431034 F480.000000
G1 X-31.715517 Y-68.383333 Z0.600000 E0.002431034 F480.000000
G1 X-31.229310 Y-68.383333 Z0.600000 E0.002431034 F480.000000
G1 X-30.743103 Y-68.383333 Z0.600000 E0.002431034 F480.000000
G1 X-30.256897 Y-68.383333 Z0.600000 E0.002431034 F480.000000
G1 X-29.770690 Y-68.383333 Z0.600000 E0.002431034 F480.000000
G1 X-29.284483 Y-68.383333 Z0.600000 E0.002431034 F480.000000
G1 X-28.798276 Y-68.383333 Z0.600000 E0.002431034 F480.000000
G1 X-28.312069 Y-68.383333 Z0.600000 E0.002431034 F480.000000
G1 X-27.825862 Y-68.383333 Z0.600000 E0.002431034 F480.000000
G1 X-27.339655 Y-68.383333 Z0.600000 E0.002431034 F480.000000
G1 X-26.853448 Y-68.383333 Z0.600000 E0.002431034 F480.000000
G1 X-26.367241 Y-68.383333 Z0.600000 E0.002431034 F480.000000
G1 X-25.881034 Y-68.383333 Z0.600000 E0.002431034 F480.000000
G1 X-25.394828 Y-68.383333 Z0.600000 E0.002431034 F480.000000
G1 X-24.908621 Y-68.383333 Z0.600000 E0.002431034 F480.000000
G1 X-24.422414 Y-68.383333 Z0.600000 E0.002431034 F480.000000
G1 X-23.936207 Y-68.383333 Z0.600000 E0.002431034 F480.000000
G1 X-23.450000 Y-68.383333 Z0.600000 E0.002431034 F480.000000
G1 X-23.450000 Y-68.383333 Z2.600000 F480.000000
G1 X-36.050000 Y-61.716667 Z2.600000 F1800.000000
G1 X-36.050000 Y-61.716667 Z0.600000 F480.000000
G1 X-36.550000 Y-61.716667 Z0.600000 E0.002500000 F480.000000
G1 X-37.050000 Y-61.716667 Z0.600000 E0.002500000 F480.000000
G1 X-37.550000 Y-61.716667 Z0.600000 E0.002500000 F480.000000
G1 X-37.550000 Y-61.716667 Z2.600000 F480.000000
G1 X-24.950000 Y-61.716667 Z2.600000 F1800.000000
G1 X-24.950000 Y-61.716667 Z0.600000 F480.000000
G1 X-24.450000 Y-61.716667 Z0.600000 E0.002500000 F480.000000
G1 X-23.950000 Y-61.716667 Z0.600000 E0.002500000 F480.000000
G1 X-23.450000 Y-61.716667 Z0.600000 E0.002500000 F480.000000
G1 X-23.450000 Y-61.716667 Z2.500000 F480.000000
