; BIOPRINTER PREVIEW ONLY - SYNTHETIC/UNAPPROVED
; mm, absolute XYZ in centered machine frame; relative calibrated E
G21
G90
M83
G1 X23.450000 Y-61.716667 Z3.100000 F480.000000
G1 X-37.550000 Y-56.550000 Z3.100000 F1800.000000
G1 X-37.550000 Y-56.550000 Z1.100000 F480.000000
G1 X-37.107143 Y-56.550000 Z1.100000 E0.002214286 F480.000000
G1 X-36.664286 Y-56.550000 Z1.100000 E0.002214286 F480.000000
G1 X-36.664286 Y-56.550000 Z3.000000 F480.000000
G1 X-36.664286 Y-56.550000 Z0.600000 F480.000000
G1 X-36.221429 Y-56.550000 Z0.600000 E0.002214286 F480.000000
G1 X-35.778571 Y-56.550000 Z0.600000 E0.002214286 F480.000000
G1 X-35.335714 Y-56.550000 Z0.600000 E0.002214286 F480.000000
G1 X-35.335714 Y-56.550000 Z3.100000 F480.000000
G1 X-35.335714 Y-56.550000 Z1.100000 F480.000000
G1 X-34.892857 Y-56.550000 Z1.100000 E0.002214286 F480.000000
G1 X-34.450000 Y-56.550000 Z1.100000 E0.002214286 F480.000000
G1 X-34.450000 Y-57.032141 Z1.100000 E0.002410706 F480.000000
G1 X-34.450000 Y-57.514282 Z1.100000 E0.002410706 F480.000000
G1 X-34.450000 Y-57.996424 Z1.100000 E0.002410706 F480.000000
G1 X-34.450000 Y-58.478565 Z1.100000 E0.002410706 F480.000000
G1 X-34.450000 Y-58.960706 Z1.100000 E0.002410706 F480.000000
G1 X-34.450000 Y-59.442847 Z1.100000 E0.002410706 F480.000000
G1 X-34.450000 Y-59.924989 Z1.100000 E0.002410706 F480.000000
G1 X-34.450000 Y-60.407130 Z1.100000 E0.002410706 F480.000000
G1 X-34.450000 Y-60.889271 Z1.100000 E0.002410706 F480.000000
G1 X-34.450000 Y-61.371412 Z1.100000 E0.002410706 F480.000000
G1 X-34.450000 Y-61.853553 Z1.100000 E0.002410706 F480.000000
G1 X-34.450000 Y-62.335695 Z1.100000 E0.002410706 F480.000000
G1 X-34.450000 Y-62.817836 Z1.100000 E0.002410706 F480.000000
G1 X-34.450000 Y-63.299977 Z1.100000 E0.002410706 F480.000000
G1 X-34.450000 Y-63.782118 Z1.100000 E0.002410706 F480.000000
G1 X-34.450000 Y-64.264259 Z1.100000 E0.002410706 F480.000000
G1 X-34.450000 Y-64.746401 Z1.100000 E0.002410706 F480.000000
G1 X-34.450000 Y-65.228542 Z1.100000 E0.002410706 F480.000000
G1 X-34.450000 Y-65.710683 Z1.100000 E0.002410706 F480.000000
G1 X-34.450000 Y-66.192824 Z1.100000 E0.002410706 F480.000000
G1 X-34.450000 Y-66.674966 Z1.100000 E0.002410706 F480.000000
G1 X-34.450000 Y-67.157107 Z1.100000 E0.002410706 F480.000000
G1 X-34.253553 Y-67.353553 Z1.100000 E0.001389087 F480.000000
G1 X-34.057107 Y-67.550000 Z1.100000 E0.001389087 F480.000000
G1 X-33.572218 Y-67.550000 Z1.100000 E0.002424444 F480.000000
G1 X-33.087329 Y-67.550000 Z1.100000 E0.002424444 F480.000000
G1 X-32.602441 Y-67.550000 Z1.100000 E0.002424444 F480.000000
G1 X-32.117552 Y-67.550000 Z1.100000 E0.002424444 F480.000000
G1 X-31.632663 Y-67.550000 Z1.100000 E0.002424444 F480.000000
G1 X-31.147774 Y-67.550000 Z1.100000 E0.002424444 F480.000000
G1 X-30.662886 Y-67.550000 Z1.100000 E0.002424444 F480.000000
G1 X-30.177997 Y-67.550000 Z1.100000 E0.002424444 F480.000000
G1 X-29.693108 Y-67.550000 Z1.100000 E0.002424444 F480.000000
G1 X-29.208220 Y-67.550000 Z1.100000 E0.002424444 F480.000000
G1 X-28.723331 Y-67.550000 Z1.100000 E0.002424444 F480.000000
G1 X-28.238442 Y-67.550000 Z1.100000 E0.002424444 F480.000000
G1 X-27.753553 Y-67.550000 Z1.100000 E0.002424444 F480.000000
G1 X-27.268665 Y-67.550000 Z1.100000 E0.002424444 F480.000000
G1 X-26.783776 Y-67.550000 Z1.100000 E0.002424444 F480.000000
G1 X-26.298887 Y-67.550000 Z1.100000 E0.002424444 F480.000000
G1 X-25.813999 Y-67.550000 Z1.100000 E0.002424444 F480.000000
G1 X-25.329110 Y-67.550000 Z1.100000 E0.002424444 F480.000000
G1 X-24.844221 Y-67.550000 Z1.100000 E0.002424444 F480.000000
G1 X-24.359332 Y-67.550000 Z1.100000 E0.002424444 F480.000000
G1 X-23.874444 Y-67.550000 Z1.100000 E0.002424444 F480.000000
G1 X-23.389555 Y-67.550000 Z1.100000 E0.002424444 F480.000000
G1 X-22.904666 Y-67.550000 Z1.100000 E0.002424444 F480.000000
G1 X-22.419777 Y-67.550000 Z1.100000 E0.002424444 F480.000000
G1 X-21.934889 Y-67.550000 Z1.100000 E0.002424444 F480.000000
G1 X-21.450000 Y-67.550000 Z1.100000 E0.002424444 F480.000000
G1 X-21.450000 Y-68.050000 Z1.100000 E0.002500000 F480.000000
G1 X-21.450000 Y-68.550000 Z1.100000 E0.002500000 F480.000000
G1 X-21.450000 Y-69.050000 Z1.100000 E0.002500000 F480.000000
G1 X-21.450000 Y-69.550000 Z1.100000 E0.002500000 F480.000000
G1 X-21.450000 Y-70.050000 Z1.100000 E0.002500000 F480.000000
G1 X-21.450000 Y-70.550000 Z1.100000 E0.002500000 F480.000000
G1 X-21.450000 Y-71.050000 Z1.100000 E0.002500000 F480.000000
G1 X-21.937879 Y-71.050000 Z1.100000 E0.002439394 F480.000000
G1 X-22.425758 Y-71.050000 Z1.100000 E0.002439394 F480.000000
G1 X-22.913636 Y-71.050000 Z1.100000 E0.002439394 F480.000000
G1 X-23.401515 Y-71.050000 Z1.100000 E0.002439394 F480.000000
G1 X-23.889394 Y-71.050000 Z1.100000 E0.002439394 F480.000000
G1 X-24.377273 Y-71.050000 Z1.100000 E0.002439394 F480.000000
G1 X-24.865152 Y-71.050000 Z1.100000 E0.002439394 F480.000000
G1 X-25.353030 Y-71.050000 Z1.100000 E0.002439394 F480.000000
G1 X-25.840909 Y-71.050000 Z1.100000 E0.002439394 F480.000000
G1 X-26.328788 Y-71.050000 Z1.100000 E0.002439394 F480.000000
G1 X-26.816667 Y-71.050000 Z1.100000 E0.002439394 F480.000000
G1 X-27.304545 Y-71.050000 Z1.100000 E0.002439394 F480.000000
G1 X-27.792424 Y-71.050000 Z1.100000 E0.002439394 F480.000000
G1 X-28.280303 Y-71.050000 Z1.100000 E0.002439394 F480.000000
G1 X-28.768182 Y-71.050000 Z1.100000 E0.002439394 F480.000000
G1 X-29.256061 Y-71.050000 Z1.100000 E0.002439394 F480.000000
G1 X-29.743939 Y-71.050000 Z1.100000 E0.002439394 F480.000000
G1 X-30.231818 Y-71.050000 Z1.100000 E0.002439394 F480.000000
G1 X-30.719697 Y-71.050000 Z1.100000 E0.002439394 F480.000000
G1 X-31.207576 Y-71.050000 Z1.100000 E0.002439394 F480.000000
G1 X-31.695455 Y-71.050000 Z1.100000 E0.002439394 F480.000000
G1 X-32.183333 Y-71.050000 Z1.100000 E0.002439394 F480.000000
G1 X-32.671212 Y-71.050000 Z1.100000 E0.002439394 F480.000000
G1 X-33.159091 Y-71.050000 Z1.100000 E0.002439394 F480.000000
G1 X-33.646970 Y-71.050000 Z1.100000 E0.002439394 F480.000000
G1 X-34.134848 Y-71.050000 Z1.100000 E0.002439394 F480.000000
G1 X-34.622727 Y-71.050000 Z1.100000 E0.002439394 F480.000000
G1 X-35.110606 Y-71.050000 Z1.100000 E0.002439394 F480.000000
G1 X-35.598485 Y-71.050000 Z1.100000 E0.002439394 F480.000000
G1 X-36.086364 Y-71.050000 Z1.100000 E0.002439394 F480.000000
G1 X-36.574242 Y-71.050000 Z1.100000 E0.002439394 F480.000000
G1 X-37.062121 Y-71.050000 Z1.100000 E0.002439394 F480.000000
G1 X-37.550000 Y-71.050000 Z1.100000 E0.002439394 F480.000000
G1 X-37.550000 Y-70.550000 Z1.100000 E0.002500000 F480.000000
G1 X-37.550000 Y-70.050000 Z1.100000 E0.002500000 F480.000000
G1 X-37.550000 Y-69.550000 Z1.100000 E0.002500000 F480.000000
G1 X-37.550000 Y-69.050000 Z1.100000 E0.002500000 F480.000000
G1 X-37.550000 Y-68.550000 Z1.100000 E0.002500000 F480.000000
G1 X-37.550000 Y-68.050000 Z1.100000 E0.002500000 F480.000000
G1 X-37.550000 Y-67.550000 Z1.100000 E0.002500000 F480.000000
G1 X-37.550000 Y-67.050000 Z1.100000 E0.002500000 F480.000000
G1 X-37.550000 Y-66.550000 Z1.100000 E0.002500000 F480.000000
G1 X-37.550000 Y-66.050000 Z1.100000 E0.002500000 F480.000000
G1 X-37.550000 Y-65.550000 Z1.100000 E0.002500000 F480.000000
G1 X-37.550000 Y-65.050000 Z1.100000 E0.002500000 F480.000000
G1 X-37.550000 Y-64.550000 Z1.100000 E0.002500000 F480.000000
G1 X-37.550000 Y-64.050000 Z1.100000 E0.002500000 F480.000000
G1 X-37.550000 Y-63.550000 Z1.100000 E0.002500000 F480.000000
G1 X-37.550000 Y-63.050000 Z1.100000 E0.002500000 F480.000000
G1 X-37.550000 Y-62.550000 Z1.100000 E0.002500000 F480.000000
G1 X-37.550000 Y-62.050000 Z1.100000 E0.002500000 F480.000000
G1 X-37.550000 Y-61.550000 Z1.100000 E0.002500000 F480.000000
G1 X-37.550000 Y-61.050000 Z1.100000 E0.002500000 F480.000000
G1 X-37.550000 Y-60.550000 Z1.100000 E0.002500000 F480.000000
G1 X-37.550000 Y-60.050000 Z1.100000 E0.002500000 F480.000000
G1 X-37.550000 Y-59.550000 Z1.100000 E0.002500000 F480.000000
G1 X-37.550000 Y-59.050000 Z1.100000 E0.002500000 F480.000000
G1 X-37.550000 Y-58.550000 Z1.100000 E0.002500000 F480.000000
G1 X-37.550000 Y-58.050000 Z1.100000 E0.002500000 F480.000000
G1 X-37.550000 Y-57.550000 Z1.100000 E0.002500000 F480.000000
G1 X-37.550000 Y-57.050000 Z1.100000 E0.002500000 F480.000000
G1 X-37.550000 Y-56.550000 Z1.100000 E0.002500000 F480.000000
G1 X-37.550000 Y-56.550000 Z3.100000 F480.000000
G1 X-36.550000 Y-68.383333 Z3.100000 F1800.000000
G1 X-36.550000 Y-68.383333 Z1.100000 F480.000000
G1 X-36.071997 Y-68.383333 Z1.100000 E0.002390016 F480.000000
G1 X-35.593994 Y-68.383333 Z1.100000 E0.002390016 F480.000000
G1 X-35.115990 Y-68.383333 Z1.100000 E0.002390016 F480.000000
G1 X-34.637987 Y-68.383333 Z1.100000 E0.002390016 F480.000000
G1 X-34.637987 Y-68.383333 Z3.100000 F480.000000
G1 X-35.450000 Y-61.716667 Z3.100000 F1800.000000
G1 X-35.450000 Y-61.716667 Z1.100000 F480.000000
G1 X-35.816667 Y-61.716667 Z1.100000 E0.001833333 F480.000000
G1 X-36.183333 Y-61.716667 Z1.100000 E0.001833333 F480.000000
G1 X-36.550000 Y-61.716667 Z1.100000 E0.001833333 F480.000000
G1 X-36.550000 Y-61.716667 Z3.000000 F480.000000
