; BIOPRINTER PREVIEW ONLY - SYNTHETIC/UNAPPROVED
; mm, absolute XYZ in centered machine frame; relative calibrated E
G21
G90
M83
G1 X-36.550000 Y63.283333 Z3.100000 F480.000000
G1 X20.450000 Y60.350000 Z3.100000 F1800.000000
G1 X20.450000 Y60.350000 Z1.100000 F480.000000
G1 X20.450000 Y60.792857 Z1.100000 E0.002214286 F480.000000
G1 X20.450000 Y61.235714 Z1.100000 E0.002214286 F480.000000
G1 X20.450000 Y61.678571 Z1.100000 E0.002214286 F480.000000
G1 X20.450000 Y62.121429 Z1.100000 E0.002214286 F480.000000
G1 X20.450000 Y62.564286 Z1.100000 E0.002214286 F480.000000
G1 X20.450000 Y63.007143 Z1.100000 E0.002214286 F480.000000
G1 X20.450000 Y63.450000 Z1.100000 E0.002214286 F480.000000
G1 X20.450000 Y63.450000 Z3.600000 F480.000000
G1 X20.450000 Y63.450000 Z1.600000 F480.000000
G1 X20.939744 Y63.450000 Z1.600000 E0.002448718 F480.000000
G1 X21.429487 Y63.450000 Z1.600000 E0.002448718 F480.000000
G1 X21.919231 Y63.450000 Z1.600000 E0.002448718 F480.000000
G1 X22.408974 Y63.450000 Z1.600000 E0.002448718 F480.000000
G1 X22.898718 Y63.450000 Z1.600000 E0.002448718 F480.000000
G1 X23.388462 Y63.450000 Z1.600000 E0.002448718 F480.000000
G1 X23.878205 Y63.450000 Z1.600000 E0.002448718 F480.000000
G1 X24.367949 Y63.450000 Z1.600000 E0.002448718 F480.000000
G1 X24.857692 Y63.450000 Z1.600000 E0.002448718 F480.000000
G1 X25.347436 Y63.450000 Z1.600000 E0.002448718 F480.000000
G1 X25.837179 Y63.450000 Z1.600000 E0.002448718 F480.000000
G1 X26.326923 Y63.450000 Z1.600000 E0.002448718 F480.000000
G1 X26.816667 Y63.450000 Z1.600000 E0.002448718 F480.000000
G1 X26.816667 Y63.450000 Z3.500000 F480.000000
G1 X26.816667 Y63.450000 Z1.100000 F480.000000
G1 X27.306410 Y63.450000 Z1.100000 E0.002448718 F480.000000
G1 X27.306410 Y63.450000 Z3.500000 F480.000000
G1 X27.306410 Y63.450000 Z0.600000 F480.000000
G1 X27.796154 Y63.450000 Z0.600000 E0.002448718 F480.000000
G1 X28.285897 Y63.450000 Z0.600000 E0.002448718 F480.000000
G1 X28.775641 Y63.450000 Z0.600000 E0.002448718 F480.000000
G1 X29.265385 Y63.450000 Z0.600000 E0.002448718 F480.000000
G1 X29.755128 Y63.450000 Z0.600000 E0.002448718 F480.000000
G1 X30.244872 Y63.450000 Z0.600000 E0.002448718 F480.000000
G1 X30.734615 Y63.450000 Z0.600000 E0.002448718 F480.000000
G1 X31.224359 Y63.450000 Z0.600000 E0.002448718 F480.000000
G1 X31.714103 Y63.450000 Z0.600000 E0.002448718 F480.000000
G1 X32.203846 Y63.450000 Z0.600000 E0.002448718 F480.000000
G1 X32.203846 Y63.450000 Z3.500000 F480.000000
G1 X32.203846 Y63.450000 Z1.100000 F480.000000
G1 X32.693590 Y63.450000 Z1.100000 E0.002448718 F480.000000
G1 X33.183333 Y63.450000 Z1.100000 E0.002448718 F480.000000
G1 X33.673077 Y63.450000 Z1.100000 E0.002448718 F480.000000
G1 X34.162821 Y63.450000 Z1.100000 E0.002448718 F480.000000
G1 X34.652564 Y63.450000 Z1.100000 E0.002448718 F480.000000
G1 X35.142308 Y63.450000 Z1.100000 E0.002448718 F480.000000
G1 X35.632051 Y63.450000 Z1.100000 E0.002448718 F480.000000
G1 X36.121795 Y63.450000 Z1.100000 E0.002448718 F480.000000
G1 X36.611538 Y63.450000 Z1.100000 E0.002448718 F480.000000
G1 X37.101282 Y63.450000 Z1.100000 E0.002448718 F480.000000
G1 X37.591026 Y63.450000 Z1.100000 E0.002448718 F480.000000
G1 X38.080769 Y63.450000 Z1.100000 E0.002448718 F480.000000
G1 X38.570513 Y63.450000 Z1.100000 E0.002448718 F480.000000
G1 X39.060256 Y63.450000 Z1.100000 E0.002448718 F480.000000
G1 X39.550000 Y63.450000 Z1.100000 E0.002448718 F480.000000
G1 X39.550000 Y63.450000 Z3.500000 F480.000000
G1 X39.550000 Y63.450000 Z0.600000 F480.000000
G1 X39.550000 Y63.007143 Z0.600000 E0.002214286 F480.000000
G1 X39.550000 Y62.564286 Z0.600000 E0.002214286 F480.000000
G1 X39.550000 Y62.121429 Z0.600000 E0.002214286 F480.000000
G1 X39.550000 Y61.678571 Z0.600000 E0.002214286 F480.000000
G1 X39.550000 Y61.235714 Z0.600000 E0.002214286 F480.000000
G1 X39.550000 Y60.792857 Z0.600000 E0.002214286 F480.000000
G1 X39.550000 Y60.350000 Z0.600000 E0.002214286 F480.000000
G1 X39.550000 Y60.350000 Z3.500000 F480.000000
G1 X39.550000 Y60.350000 Z1.100000 F480.000000
G1 X39.060256 Y60.350000 Z1.100000 E0.002448718 F480.000000
G1 X38.570513 Y60.350000 Z1.100000 E0.002448718 F480.000000
G1 X38.080769 Y60.350000 Z1.100000 E0.002448718 F480.000000
G1 X37.591026 Y60.350000 Z1.100000 E0.002448718 F480.000000
G1 X37.101282 Y60.350000 Z1.100000 E0.002448718 F480.000000
G1 X36.611538 Y60.350000 Z1.100000 E0.002448718 F480.000000
G1 X36.121795 Y60.350000 Z1.100000 E0.002448718 F480.000000
G1 X35.632051 Y60.350000 Z1.100000 E0.002448718 F480.000000
G1 X35.142308 Y60.350000 Z1.100000 E0.002448718 F480.000000
G1 X34.652564 Y60.350000 Z1.100000 E0.002448718 F480.000000
G1 X34.162821 Y60.350000 Z1.100000 E0.002448718 F480.000000
G1 X33.673077 Y60.350000 Z1.100000 E0.002448718 F480.000000
G1 X33.183333 Y60.350000 Z1.100000 E0.002448718 F480.000000
G1 X32.693590 Y60.350000 Z1.100000 E0.002448718 F480.000000
G1 X32.203846 Y60.350000 Z1.100000 E0.002448718 F480.000000
G1 X32.203846 Y60.350000 Z3.500000 F480.000000
G1 X32.203846 Y60.350000 Z0.600000 F480.000000
G1 X31.714103 Y60.350000 Z0.600000 E0.002448718 F480.000000
G1 X31.224359 Y60.350000 Z0.600000 E0.002448718 F480.000000
G1 X30.734615 Y60.350000 Z0.600000 E0.002448718 F480.000000
G1 X30.244872 Y60.350000 Z0.600000 E0.002448718 F480.000000
G1 X29.755128 Y60.350000 Z0.600000 E0.002448718 F480.000000
G1 X29.265385 Y60.350000 Z0.600000 E0.002448718 F480.000000
G1 X28.775641 Y60.350000 Z0.600000 E0.002448718 F480.000000
G1 X28.285897 Y60.350000 Z0.600000 E0.002448718 F480.000000
G1 X27.796154 Y60.350000 Z0.600000 E0.002448718 F480.000000
G1 X27.306410 Y60.350000 Z0.600000 E0.002448718 F480.000000
G1 X27.306410 Y60.350000 Z3.500000 F480.000000
G1 X27.306410 Y60.350000 Z1.100000 F480.000000
G1 X26.816667 Y60.350000 Z1.100000 E0.002448718 F480.000000
G1 X26.816667 Y60.350000 Z3.600000 F480.000000
G1 X26.816667 Y60.350000 Z1.600000 F480.000000
G1 X26.326923 Y60.350000 Z1.600000 E0.002448718 F480.000000
G1 X25.837179 Y60.350000 Z1.600000 E0.002448718 F480.000000
G1 X25.347436 Y60.350000 Z1.600000 E0.002448718 F480.000000
G1 X24.857692 Y60.350000 Z1.600000 E0.002448718 F480.000000
G1 X24.367949 Y60.350000 Z1.600000 E0.002448718 F480.000000
G1 X23.878205 Y60.350000 Z1.600000 E0.002448718 F480.000000
G1 X23.878205 Y60.350000 Z3.500000 F480.000000
G1 X23.878205 Y60.350000 Z1.100000 F480.000000
G1 X23.388462 Y60.350000 Z1.100000 E0.002448718 F480.000000
G1 X23.388462 Y60.350000 Z3.600000 F480.000000
G1 X23.388462 Y60.350000 Z1.600000 F480.000000
G1 X22.898718 Y60.350000 Z1.600000 E0.002448718 F480.000000
G1 X22.408974 Y60.350000 Z1.600000 E0.002448718 F480.000000
G1 X21.919231 Y60.350000 Z1.600000 E0.002448718 F480.000000
G1 X21.429487 Y60.350000 Z1.600000 E0.002448718 F480.000000
G1 X20.939744 Y60.350000 Z1.600000 E0.002448718 F480.000000
G1 X20.450000 Y60.350000 Z1.600000 E0.002448718 F480.000000
G1 X20.450000 Y60.350000 Z3.500000 F480.000000
G1 X35.450000 Y67.950000 Z3.500000 F1800.000000
G1 X35.450000 Y67.950000 Z0.600000 F480.000000
G1 X35.450000 Y68.392857 Z0.600000 E0.002214286 F480.000000
G1 X35.450000 Y68.835714 Z0.600000 E0.002214286 F480.000000
G1 X35.450000 Y68.835714 Z3.500000 F480.000000
G1 X35.450000 Y68.835714 Z1.100000 F480.000000
G1 X35.450000 Y69.278571 Z1.100000 E0.002214286 F480.000000
G1 X35.450000 Y69.721429 Z1.100000 E0.002214286 F480.000000
G1 X35.450000 Y70.164286 Z1.100000 E0.002214286 F480.000000
G1 X35.450000 Y70.607143 Z1.100000 E0.002214286 F480.000000
G1 X35.450000 Y71.050000 Z1.100000 E0.002214286 F480.000000
G1 X35.912500 Y71.050000 Z1.100000 E0.002312500 F480.000000
G1 X36.375000 Y71.050000 Z1.100000 E0.002312500 F480.000000
G1 X36.837500 Y71.050000 Z1.100000 E0.002312500 F480.000000
G1 X37.300000 Y71.050000 Z1.100000 E0.002312500 F480.000000
G1 X37.762500 Y71.050000 Z1.100000 E0.002312500 F480.000000
G1 X38.225000 Y71.050000 Z1.100000 E0.002312500 F480.000000
G1 X38.687500 Y71.050000 Z1.100000 E0.002312500 F480.000000
G1 X39.150000 Y71.050000 Z1.100000 E0.002312500 F480.000000
G1 X39.150000 Y71.050000 Z3.500000 F480.000000
G1 X39.150000 Y71.050000 Z0.600000 F480.000000
G1 X39.150000 Y70.607143 Z0.600000 E0.002214286 F480.000000
G1 X39.150000 Y70.164286 Z0.600000 E0.002214286 F480.000000
G1 X39.150000 Y69.721429 Z0.600000 E0.002214286 F480.000000
G1 X39.150000 Y69.278571 Z0.600000 E0.002214286 F480.000000
G1 X39.150000 Y68.835714 Z0.600000 E0.002214286 F480.000000
G1 X39.150000 Y68.392857 Z0.600000 E0.002214286 F480.000000
G1 X39.150000 Y67.950000 Z0.600000 E0.002214286 F480.000000
G1 X39.150000 Y67.950000 Z3.500000 F480.000000
G1 X39.150000 Y67.950000 Z1.100000 F480.000000
G1 X38.687500 Y67.950000 Z1.100000 E0.002312500 F480.000000
G1 X38.225000 Y67.950000 Z1.100000 E0.002312500 F480.000000
G1 X37.762500 Y67.950000 Z1.100000 E0.002312500 F480.000000
G1 X37.300000 Y67.950000 Z1.100000 E0.002312500 F480.000000
G1 X36.837500 Y67.950000 Z1.100000 E0.002312500 F480.000000
G1 X36.375000 Y67.950000 Z1.100000 E0.002312500 F480.000000
G1 X35.912500 Y67.950000 Z1.100000 E0.002312500 F480.000000
G1 X35.912500 Y67.950000 Z3.500000 F480.000000
G1 X35.912500 Y67.950000 Z0.600000 F480.000000
G1 X35.450000 Y67.950000 Z0.600000 E0.002312500 F480.000000
G1 X35.450000 Y67.950000 Z3.500000 F480.000000
G1 X36.450000 Y69.950000 Z3.500000 F1800.000000
G1 X36.450000 Y69.950000 Z1.100000 F480.000000
G1 X36.875000 Y69.950000 Z1.100000 E0.002125000 F480.000000
G1 X37.300000 Y69.950000 Z1.100000 E0.002125000 F480.000000
G1 X37.725000 Y69.950000 Z1.100000 E0.002125000 F480.000000
G1 X38.150000 Y69.950000 Z1.100000 E0.002125000 F480.000000
G1 X38.150000 Y69.950000 Z3.500000 F480.000000
