; BIOPRINTER PREVIEW ONLY - SYNTHETIC/UNAPPROVED
; mm, absolute XYZ in centered machine frame; relative calibrated E
G21
G90
M83
G1 X-39.550000 Y-64.650000 Z3.500000 F1800.000000
G1 X-39.550000 Y-64.650000 Z1.100000 F480.000000
G1 X-39.550000 Y-64.207143 Z1.100000 E0.002214286 F480.000000
G1 X-39.550000 Y-63.764286 Z1.100000 E0.002214286 F480.000000
G1 X-39.550000 Y-63.321429 Z1.100000 E0.002214286 F480.000000
G1 X-39.550000 Y-62.878571 Z1.100000 E0.002214286 F480.000000
G1 X-39.550000 Y-62.435714 Z1.100000 E0.002214286 F480.000000
G1 X-39.550000 Y-61.992857 Z1.100000 E0.002214286 F480.000000
G1 X-39.550000 Y-61.550000 Z1.100000 E0.002214286 F480.000000
G1 X-39.550000 Y-61.550000 Z3.600000 F480.000000
G1 X-39.550000 Y-61.550000 Z1.600000 F480.000000
G1 X-39.060256 Y-61.550000 Z1.600000 E0.002448718 F480.000000
G1 X-38.570513 Y-61.550000 Z1.600000 E0.002448718 F480.000000
G1 X-38.080769 Y-61.550000 Z1.600000 E0.002448718 F480.000000
G1 X-37.591026 Y-61.550000 Z1.600000 E0.002448718 F480.000000
G1 X-37.101282 Y-61.550000 Z1.600000 E0.002448718 F480.000000
G1 X-36.611538 Y-61.550000 Z1.600000 E0.002448718 F480.000000
G1 X-36.121795 Y-61.550000 Z1.600000 E0.002448718 F480.000000
G1 X-35.632051 Y-61.550000 Z1.600000 E0.002448718 F480.000000
G1 X-35.142308 Y-61.550000 Z1.600000 E0.002448718 F480.000000
G1 X-34.652564 Y-61.550000 Z1.600000 E0.002448718 F480.000000
G1 X-34.162821 Y-61.550000 Z1.600000 E0.002448718 F480.000000
G1 X-33.673077 Y-61.550000 Z1.600000 E0.002448718 F480.000000
G1 X-33.183333 Y-61.550000 Z1.600000 E0.002448718 F480.000000
G1 X-33.183333 Y-61.550000 Z3.500000 F480.000000
G1 X-33.183333 Y-61.550000 Z1.100000 F480.000000
G1 X-32.693590 Y-61.550000 Z1.100000 E0.002448718 F480.000000
G1 X-32.693590 Y-61.550000 Z3.500000 F480.000000
G1 X-32.693590 Y-61.550000 Z0.600000 F480.000000
G1 X-32.203846 Y-61.550000 Z0.600000 E0.002448718 F480.000000
G1 X-31.714103 Y-61.550000 Z0.600000 E0.002448718 F480.000000
G1 X-31.224359 Y-61.550000 Z0.600000 E0.002448718 F480.000000
G1 X-30.734615 Y-61.550000 Z0.600000 E0.002448718 F480.000000
G1 X-30.244872 Y-61.550000 Z0.600000 E0.002448718 F480.000000
G1 X-29.755128 Y-61.550000 Z0.600000 E0.002448718 F480.000000
G1 X-29.265385 Y-61.550000 Z0.600000 E0.002448718 F480.000000
G1 X-28.775641 Y-61.550000 Z0.600000 E0.002448718 F480.000000
G1 X-28.285897 Y-61.550000 Z0.600000 E0.002448718 F480.000000
G1 X-27.796154 Y-61.550000 Z0.600000 E0.002448718 F480.000000
G1 X-27.796154 Y-61.550000 Z3.500000 F480.000000
G1 X-27.796154 Y-61.550000 Z1.100000 F480.000000
G1 X-27.306410 Y-61.550000 Z1.100000 E0.002448718 F480.000000
G1 X-26.816667 Y-61.550000 Z1.100000 E0.002448718 F480.000000
G1 X-26.326923 Y-61.550000 Z1.100000 E0.002448718 F480.000000
G1 X-25.837179 Y-61.550000 Z1.100000 E0.002448718 F480.000000
G1 X-25.347436 Y-61.550000 Z1.100000 E0.002448718 F480.000000
G1 X-24.857692 Y-61.550000 Z1.100000 E0.002448718 F480.000000
G1 X-24.367949 Y-61.550000 Z1.100000 E0.002448718 F480.000000
G1 X-23.878205 Y-61.550000 Z1.100000 E0.002448718 F480.000000
G1 X-23.388462 Y-61.550000 Z1.100000 E0.002448718 F480.000000
G1 X-22.898718 Y-61.550000 Z1.100000 E0.002448718 F480.000000
G1 X-22.408974 Y-61.550000 Z1.100000 E0.002448718 F480.000000
G1 X-21.919231 Y-61.550000 Z1.100000 E0.002448718 F480.000000
G1 X-21.429487 Y-61.550000 Z1.100000 E0.002448718 F480.000000
G1 X-20.939744 Y-61.550000 Z1.100000 E0.002448718 F480.000000
G1 X-20.450000 Y-61.550000 Z1.100000 E0.002448718 F480.000000
G1 X-20.450000 Y-61.550000 Z3.500000 F480.000000
G1 X-20.450000 Y-61.550000 Z0.600000 F480.000000
G1 X-20.450000 Y-61.992857 Z0.600000 E0.002214286 F480.000000
G1 X-20.450000 Y-62.435714 Z0.600000 E0.002214286 F480.000000
G1 X-20.450000 Y-62.878571 Z0.600000 E0.002214286 F480.000000
G1 X-20.450000 Y-63.321429 Z0.600000 E0.002214286 F480.000000
G1 X-20.450000 Y-63.764286 Z0.600000 E0.002214286 F480.000000
G1 X-20.450000 Y-64.207143 Z0.600000 E0.002214286 F480.000000
G1 X-20.450000 Y-64.650000 Z0.600000 E0.002214286 F480.000000
G1 X-20.450000 Y-64.650000 Z3.500000 F480.000000
G1 X-20.450000 Y-64.650000 Z1.100000 F480.000000
G1 X-20.939744 Y-64.650000 Z1.100000 E0.002448718 F480.000000
G1 X-21.429487 Y-64.650000 Z1.100000 E0.002448718 F480.000000
G1 X-21.919231 Y-64.650000 Z1.100000 E0.002448718 F480.000000
G1 X-22.408974 Y-64.650000 Z1.100000 E0.002448718 F480.000000
G1 X-22.898718 Y-64.650000 Z1.100000 E0.002448718 F480.000000
G1 X-23.388462 Y-64.650000 Z1.100000 E0.002448718 F480.000000
G1 X-23.878205 Y-64.650000 Z1.100000 E0.002448718 F480.000000
G1 X-24.367949 Y-64.650000 Z1.100000 E0.002448718 F480.000000
G1 X-24.857692 Y-64.650000 Z1.100000 E0.002448718 F480.000000
G1 X-25.347436 Y-64.650000 Z1.100000 E0.002448718 F480.000000
G1 X-25.837179 Y-64.650000 Z1.100000 E0.002448718 F480.000000
G1 X-26.326923 Y-64.650000 Z1.100000 E0.002448718 F480.000000
G1 X-26.816667 Y-64.650000 Z1.100000 E0.002448718 F480.000000
G1 X-27.306410 Y-64.650000 Z1.100000 E0.002448718 F480.000000
G1 X-27.796154 Y-64.650000 Z1.100000 E0.002448718 F480.000000
G1 X-27.796154 Y-64.650000 Z3.500000 F480.000000
G1 X-27.796154 Y-64.650000 Z0.600000 F480.000000
G1 X-28.285897 Y-64.650000 Z0.600000 E0.002448718 F480.000000
G1 X-28.775641 Y-64.650000 Z0.600000 E0.002448718 F480.000000
G1 X-29.265385 Y-64.650000 Z0.600000 E0.002448718 F480.000000
G1 X-29.755128 Y-64.650000 Z0.600000 E0.002448718 F480.000000
G1 X-30.244872 Y-64.650000 Z0.600000 E0.002448718 F480.000000
G1 X-30.734615 Y-64.650000 Z0.600000 E0.002448718 F480.000000
G1 X-31.224359 Y-64.650000 Z0.600000 E0.002448718 F480.000000
G1 X-31.714103 Y-64.650000 Z0.600000 E0.002448718 F480.000000
G1 X-32.203846 Y-64.650000 Z0.600000 E0.002448718 F480.000000
G1 X-32.693590 Y-64.650000 Z0.600000 E0.002448718 F480.000000
G1 X-32.693590 Y-64.650000 Z3.500000 F480.000000
G1 X-32.693590 Y-64.650000 Z1.100000 F480.000000
G1 X-33.183333 Y-64.650000 Z1.100000 E0.002448718 F480.000000
G1 X-33.183333 Y-64.650000 Z3.600000 F480.000000
G1 X-33.183333 Y-64.650000 Z1.600000 F480.000000
G1 X-33.673077 Y-64.650000 Z1.600000 E0.002448718 F480.000000
G1 X-34.162821 Y-64.650000 Z1.600000 E0.002448718 F480.000000
G1 X-34.652564 Y-64.650000 Z1.600000 E0.002448718 F480.000000
G1 X-35.142308 Y-64.650000 Z1.600000 E0.002448718 F480.000000
G1 X-35.632051 Y-64.650000 Z1.600000 E0.002448718 F480.000000
G1 X-36.121795 Y-64.650000 Z1.600000 E0.002448718 F480.000000
G1 X-36.121795 Y-64.650000 Z3.500000 F480.000000
G1 X-36.121795 Y-64.650000 Z1.100000 F480.000000
G1 X-36.611538 Y-64.650000 Z1.100000 E0.002448718 F480.000000
G1 X-36.611538 Y-64.650000 Z3.600000 F480.000000
G1 X-36.611538 Y-64.650000 Z1.600000 F480.000000
G1 X-37.101282 Y-64.650000 Z1.600000 E0.002448718 F480.000000
G1 X-37.591026 Y-64.650000 Z1.600000 E0.002448718 F480.000000
G1 X-38.080769 Y-64.650000 Z1.600000 E0.002448718 F480.000000
G1 X-38.570513 Y-64.650000 Z1.600000 E0.002448718 F480.000000
G1 X-39.060256 Y-64.650000 Z1.600000 E0.002448718 F480.000000
G1 X-39.550000 Y-64.650000 Z1.600000 E0.002448718 F480.000000
G1 X-39.550000 Y-64.650000 Z3.500000 F480.000000
G1 X-24.550000 Y-57.050000 Z3.500000 F1800.000000
G1 X-24.550000 Y-57.050000 Z0.600000 F480.000000
G1 X-24.550000 Y-56.607143 Z0.600000 E0.002214286 F480.000000
G1 X-24.550000 Y-56.164286 Z0.600000 E0.002214286 F480.000000
G1 X-24.550000 Y-56.164286 Z3.500000 F480.000000
G1 X-24.550000 Y-56.164286 Z1.100000 F480.000000
G1 X-24.550000 Y-55.721429 Z1.100000 E0.002214286 F480.000000
G1 X-24.550000 Y-55.278571 Z1.100000 E0.002214286 F480.000000
G1 X-24.550000 Y-54.835714 Z1.100000 E0.002214286 F480.000000
G1 X-24.550000 Y-54.392857 Z1.100000 E0.002214286 F480.000000
G1 X-24.550000 Y-53.950000 Z1.100000 E0.002214286 F480.000000
G1 X-24.087500 Y-53.950000 Z1.100000 E0.002312500 F480.000000
G1 X-23.625000 Y-53.950000 Z1.100000 E0.002312500 F480.000000
G1 X-23.162500 Y-53.950000 Z1.100000 E0.002312500 F480.000000
G1 X-22.700000 Y-53.950000 Z1.100000 E0.002312500 F480.000000
G1 X-22.237500 Y-53.950000 Z1.100000 E0.002312500 F480.000000
G1 X-21.775000 Y-53.950000 Z1.100000 E0.002312500 F480.000000
G1 X-21.312500 Y-53.950000 Z1.100000 E0.002312500 F480.000000
G1 X-20.850000 Y-53.950000 Z1.100000 E0.002312500 F480.000000
G1 X-20.850000 Y-53.950000 Z3.500000 F480.000000
G1 X-20.850000 Y-53.950000 Z0.600000 F480.000000
G1 X-20.850000 Y-54.392857 Z0.600000 E0.002214286 F480.000000
G1 X-20.850000 Y-54.835714 Z0.600000 E0.002214286 F480.000000
G1 X-20.850000 Y-55.278571 Z0.600000 E0.002214286 F480.000000
G1 X-20.850000 Y-55.721429 Z0.600000 E0.002214286 F480.000000
G1 X-20.850000 Y-56.164286 Z0.600000 E0.002214286 F480.000000
G1 X-20.850000 Y-56.607143 Z0.600000 E0.002214286 F480.000000
G1 X-20.850000 Y-57.050000 Z0.600000 E0.002214286 F480.000000
G1 X-20.850000 Y-57.050000 Z3.500000 F480.000000
G1 X-20.850000 Y-57.050000 Z1.100000 F480.000000
G1 X-21.312500 Y-57.050000 Z1.100000 E0.002312500 F480.000000
G1 X-21.775000 Y-57.050000 Z1.100000 E0.002312500 F480.000000
G1 X-22.237500 Y-57.050000 Z1.100000 E0.002312500 F480.000000
G1 X-22.700000 Y-57.050000 Z1.100000 E0.002312500 F480.000000
G1 X-23.162500 Y-57.050000 Z1.100000 E0.002312500 F480.000000
G1 X-23.625000 Y-57.050000 Z1.100000 E0.002312500 F480.000000
G1 X-24.087500 Y-57.050000 Z1.100000 E0.002312500 F480.000000
G1 X-24.087500 Y-57.050000 Z3.500000 F480.000000
G1 X-24.087500 Y-57.050000 Z0.600000 F480.000000
G1 X-24.550000 Y-57.050000 Z0.600000 E0.002312500 F480.000000
G1 X-24.550000 Y-57.050000 Z3.500000 F480.000000
G1 X-23.550000 Y-55.050000 Z3.500000 F1800.000000
G1 X-23.550000 Y-55.050000 Z1.100000 F480.000000
G1 X-23.125000 Y-55.050000 Z1.100000 E0.002125000 F480.000000
G1 X-22.700000 Y-55.050000 Z1.100000 E0.002125000 F480.000000
G1 X-22.275000 Y-55.050000 Z1.100000 E0.002125000 F480.000000
G1 X-21.850000 Y-55.050000 Z1.100000 E0.002125000 F480.000000
G1 X-21.850000 Y-55.050000 Z3.500000 F480.000000
