; Direct polygon backend: plain mm filament E
G21
G90
M82
G1 X2.50000000 Y10.40000000 Z0.50000000 F1800.0
G1 X2.50000000 Y13.50000000 E0.6444151165 F480.0
G1 X21.60000000 Y13.50000000 E4.6148437377 F480.0
G1 X21.60000000 Y10.40000000 E5.2592588542 F480.0
G1 X2.50000000 Y10.40000000 E9.2296874753 F480.0
G1 X17.50000000 Y18.00000000 Z0.50000000 F1800.0
G1 X17.50000000 Y21.10000000 E9.8741025918 F480.0
G1 X21.20000000 Y21.10000000 E10.6432432148 F480.0
G1 X21.20000000 Y18.00000000 E11.2876583313 F480.0
G1 X17.50000000 Y18.00000000 E12.0567989542 F480.0
G1 X18.50000000 Y20.00000000 Z0.50000000 F1800.0
G1 X20.20000000 Y20.00000000 E12.4101878891 F480.0
