; Direct polygon backend: plain mm filament E
G21
G90
M82
G1 X3.50000000 Y20.50000000 Z0.50000000 F1800.0
G1 X19.60000000 Y20.50000000 E3.3468010890 F480.0
G1 X19.60000000 Y4.40000000 E6.6936021780 F480.0
G1 X3.50000000 Y4.40000000 E10.0404032671 F480.0
G1 X3.50000000 Y20.50000000 E13.3872043561 F480.0
G1 X7.00000000 Y16.60710678 Z0.50000000 F1800.0
G1 X7.00000000 Y8.29289322 E15.1155285179 F480.0
G1 X7.39289322 Y7.90000000 E15.2310315955 F480.0
G1 X15.70710678 Y7.90000000 E16.9593557573 F480.0
G1 X16.10000000 Y8.29289322 E17.0748588350 F480.0
G1 X16.10000000 Y16.60710678 E18.8031829968 F480.0
G1 X15.70710678 Y17.00000000 E18.9186860745 F480.0
G1 X7.39289322 Y17.00000000 E20.6470102363 F480.0
G1 X7.00000000 Y16.60710678 E20.7625133140 F480.0
G1 X4.50000000 Y6.66666667 Z0.50000000 F1800.0
G1 X18.60000000 Y6.66666667 E23.6935627149 F480.0
G1 X6.00000000 Y13.33333333 Z0.50000000 F1800.0
G1 X4.50000000 Y13.33333333 E24.0053764810 F480.0
G1 X17.10000000 Y13.33333333 Z0.50000000 F1800.0
G1 X18.60000000 Y13.33333333 E24.3171902470 F480.0
