; Direct polygon backend: plain mm filament E
G21
G90
M82
G1 X4.50000000 Y18.50000000 Z0.50000000 F1800.0
G1 X7.60000000 Y18.50000000 E0.6444151165 F480.0
G1 X7.60000000 Y7.89289322 E2.8493763915 F480.0
G1 X7.99289322 Y7.50000000 E2.9648794691 F480.0
G1 X20.60000000 Y7.50000000 E5.5855924322 F480.0
G1 X20.60000000 Y4.00000000 E6.3131578863 F480.0
G1 X4.50000000 Y4.00000000 E9.6599589753 F480.0
G1 X4.50000000 Y18.50000000 E12.6741587139 F480.0
G1 X5.50000000 Y6.66666667 Z0.50000000 F1800.0
G1 X7.41201299 Y6.66666667 E13.0716200279 F480.0
G1 X6.60000000 Y13.33333333 Z0.50000000 F1800.0
G1 X5.50000000 Y13.33333333 E13.3002834564 F480.0
