; BIOPRINTER PREVIEW ONLY - SYNTHETIC/UNAPPROVED
; mm, absolute XYZ in centered machine frame; relative calibrated E
G21
G90
M83
G1 X-23.450000 Y63.283333 Z3.100000 F480.000000
G1 X22.450000 Y68.450000 Z3.100000 F1800.000000
G1 X22.450000 Y68.450000 Z1.100000 F480.000000
G1 X22.892857 Y68.450000 Z1.100000 E0.002214286 F480.000000
G1 X23.335714 Y68.450000 Z1.100000 E0.002214286 F480.000000
G1 X23.335714 Y68.450000 Z3.000000 F480.000000
G1 X23.335714 Y68.450000 Z0.600000 F480.000000
G1 X23.778571 Y68.450000 Z0.600000 E0.002214286 F480.000000
G1 X24.221429 Y68.450000 Z0.600000 E0.002214286 F480.000000
G1 X24.664286 Y68.450000 Z0.600000 E0.002214286 F480.000000
G1 X24.664286 Y68.450000 Z3.100000 F480.000000
G1 X24.664286 Y68.450000 Z1.100000 F480.000000
G1 X25.107143 Y68.450000 Z1.100000 E0.002214286 F480.000000
G1 X25.550000 Y68.450000 Z1.100000 E0.002214286 F480.000000
G1 X25.550000 Y67.967859 Z1.100000 E0.002410706 F480.000000
G1 X25.550000 Y67.485718 Z1.100000 E0.002410706 F480.000000
G1 X25.550000 Y67.003576 Z1.100000 E0.002410706 F480.000000
G1 X25.550000 Y66.521435 Z1.100000 E0.002410706 F480.000000
G1 X25.550000 Y66.039294 Z1.100000 E0.002410706 F480.000000
G1 X25.550000 Y65.557153 Z1.100000 E0.002410706 F480.000000
G1 X25.550000 Y65.075011 Z1.100000 E0.002410706 F480.000000
G1 X25.550000 Y64.592870 Z1.100000 E0.002410706 F480.000000
G1 X25.550000 Y64.110729 Z1.100000 E0.002410706 F480.000000
G1 X25.550000 Y63.628588 Z1.100000 E0.002410706 F480.000000
G1 X25.550000 Y63.146447 Z1.100000 E0.002410706 F480.000000
G1 X25.550000 Y62.664305 Z1.100000 E0.002410706 F480.000000
G1 X25.550000 Y62.182164 Z1.100000 E0.002410706 F480.000000
G1 X25.550000 Y61.700023 Z1.100000 E0.002410706 F480.000000
G1 X25.550000 Y61.217882 Z1.100000 E0.002410706 F480.000000
G1 X25.550000 Y60.735741 Z1.100000 E0.002410706 F480.000000
G1 X25.550000 Y60.253599 Z1.100000 E0.002410706 F480.000000
G1 X25.550000 Y59.771458 Z1.100000 E0.002410706 F480.000000
G1 X25.550000 Y59.289317 Z1.100000 E0.002410706 F480.000000
G1 X25.550000 Y58.807176 Z1.100000 E0.002410706 F480.000000
G1 X25.550000 Y58.325034 Z1.100000 E0.002410706 F480.000000
G1 X25.550000 Y57.842893 Z1.100000 E0.002410706 F480.000000
G1 X25.746447 Y57.646447 Z1.100000 E0.001389087 F480.000000
G1 X25.942893 Y57.450000 Z1.100000 E0.001389087 F480.000000
G1 X26.427782 Y57.450000 Z1.100000 E0.002424444 F480.000000
G1 X26.912671 Y57.450000 Z1.100000 E0.002424444 F480.000000
G1 X27.397559 Y57.450000 Z1.100000 E0.002424444 F480.000000
G1 X27.882448 Y57.450000 Z1.100000 E0.002424444 F480.000000
G1 X28.367337 Y57.450000 Z1.100000 E0.002424444 F480.000000
G1 X28.852226 Y57.450000 Z1.100000 E0.002424444 F480.000000
G1 X29.337114 Y57.450000 Z1.100000 E0.002424444 F480.000000
G1 X29.822003 Y57.450000 Z1.100000 E0.002424444 F480.000000
G1 X30.306892 Y57.450000 Z1.100000 E0.002424444 F480.000000
G1 X30.791780 Y57.450000 Z1.100000 E0.002424444 F480.000000
G1 X31.276669 Y57.450000 Z1.100000 E0.002424444 F480.000000
G1 X31.761558 Y57.450000 Z1.100000 E0.002424444 F480.000000
G1 X32.246447 Y57.450000 Z1.100000 E0.002424444 F480.000000
G1 X32.731335 Y57.450000 Z1.100000 E0.002424444 F480.000000
G1 X33.216224 Y57.450000 Z1.100000 E0.002424444 F480.000000
G1 X33.701113 Y57.450000 Z1.100000 E0.002424444 F480.000000
G1 X34.186001 Y57.450000 Z1.100000 E0.002424444 F480.000000
G1 X34.670890 Y57.450000 Z1.100000 E0.002424444 F480.000000
G1 X35.155779 Y57.450000 Z1.100000 E0.002424444 F480.000000
G1 X35.640668 Y57.450000 Z1.100000 E0.002424444 F480.000000
G1 X36.125556 Y57.450000 Z1.100000 E0.002424444 F480.000000
G1 X36.610445 Y57.450000 Z1.100000 E0.002424444 F480.000000
G1 X37.095334 Y57.450000 Z1.100000 E0.002424444 F480.000000
G1 X37.580223 Y57.450000 Z1.100000 E0.002424444 F480.000000
G1 X38.065111 Y57.450000 Z1.100000 E0.002424444 F480.000000
G1 X38.550000 Y57.450000 Z1.100000 E0.002424444 F480.000000
G1 X38.550000 Y56.950000 Z1.100000 E0.002500000 F480.000000
G1 X38.550000 Y56.450000 Z1.100000 E0.002500000 F480.000000
G1 X38.550000 Y55.950000 Z1.100000 E0.002500000 F480.000000
G1 X38.550000 Y55.450000 Z1.100000 E0.002500000 F480.000000
G1 X38.550000 Y54.950000 Z1.100000 E0.002500000 F480.000000
G1 X38.550000 Y54.450000 Z1.100000 E0.002500000 F480.000000
G1 X38.550000 Y53.950000 Z1.100000 E0.002500000 F480.000000
G1 X38.062121 Y53.950000 Z1.100000 E0.002439394 F480.000000
G1 X37.574242 Y53.950000 Z1.100000 E0.002439394 F480.000000
G1 X37.086364 Y53.950000 Z1.100000 E0.002439394 F480.000000
G1 X36.598485 Y53.950000 Z1.100000 E0.002439394 F480.000000
G1 X36.110606 Y53.950000 Z1.100000 E0.002439394 F480.000000
G1 X35.622727 Y53.950000 Z1.100000 E0.002439394 F480.000000
G1 X35.134848 Y53.950000 Z1.100000 E0.002439394 F480.000000
G1 X34.646970 Y53.950000 Z1.100000 E0.002439394 F480.000000
G1 X34.159091 Y53.950000 Z1.100000 E0.002439394 F480.000000
G1 X33.671212 Y53.950000 Z1.100000 E0.002439394 F480.000000
G1 X33.183333 Y53.950000 Z1.100000 E0.002439394 F480.000000
G1 X32.695455 Y53.950000 Z1.100000 E0.002439394 F480.000000
G1 X32.207576 Y53.950000 Z1.100000 E0.002439394 F480.000000
G1 X31.719697 Y53.950000 Z1.100000 E0.002439394 F480.000000
G1 X31.231818 Y53.950000 Z1.100000 E0.002439394 F480.000000
G1 X30.743939 Y53.950000 Z1.100000 E0.002439394 F480.000000
G1 X30.256061 Y53.950000 Z1.100000 E0.002439394 F480.000000
G1 X29.768182 Y53.950000 Z1.100000 E0.002439394 F480.000000
G1 X29.280303 Y53.950000 Z1.100000 E0.002439394 F480.000000
G1 X28.792424 Y53.950000 Z1.100000 E0.002439394 F480.000000
G1 X28.304545 Y53.950000 Z1.100000 E0.002439394 F480.000000
G1 X27.816667 Y53.950000 Z1.100000 E0.002439394 F480.000000
G1 X27.328788 Y53.950000 Z1.100000 E0.002439394 F480.000000
G1 X26.840909 Y53.950000 Z1.100000 E0.002439394 F480.000000
G1 X26.353030 Y53.950000 Z1.100000 E0.002439394 F480.000000
G1 X25.865152 Y53.950000 Z1.100000 E0.002439394 F480.000000
G1 X25.377273 Y53.950000 Z1.100000 E0.002439394 F480.000000
G1 X24.889394 Y53.950000 Z1.100000 E0.002439394 F480.000000
G1 X24.401515 Y53.950000 Z1.100000 E0.002439394 F480.000000
G1 X23.913636 Y53.950000 Z1.100000 E0.002439394 F480.000000
G1 X23.425758 Y53.950000 Z1.100000 E0.002439394 F480.000000
G1 X22.937879 Y53.950000 Z1.100000 E0.002439394 F480.000000
G1 X22.450000 Y53.950000 Z1.100000 E0.002439394 F480.000000
G1 X22.450000 Y54.450000 Z1.100000 E0.002500000 F480.000000
G1 X22.450000 Y54.950000 Z1.100000 E0.002500000 F480.000000
G1 X22.450000 Y55.450000 Z1.100000 E0.002500000 F480.000000
G1 X22.450000 Y55.950000 Z1.100000 E0.002500000 F480.000000
G1 X22.450000 Y56.450000 Z1.100000 E0.002500000 F480.000000
G1 X22.450000 Y56.950000 Z1.100000 E0.002500000 F480.000000
G1 X22.450000 Y57.450000 Z1.100000 E0.002500000 F480.000000
G1 X22.450000 Y57.950000 Z1.100000 E0.002500000 F480.000000
G1 X22.450000 Y58.450000 Z1.100000 E0.002500000 F480.000000
G1 X22.450000 Y58.950000 Z1.100000 E0.002500000 F480.000000
G1 X22.450000 Y59.450000 Z1.100000 E0.002500000 F480.000000
G1 X22.450000 Y59.950000 Z1.100000 E0.002500000 F480.000000
G1 X22.450000 Y60.450000 Z1.100000 E0.002500000 F480.000000
G1 X22.450000 Y60.950000 Z1.100000 E0.002500000 F480.000000
G1 X22.450000 Y61.450000 Z1.100000 E0.002500000 F480.000000
G1 X22.450000 Y61.950000 Z1.100000 E0.002500000 F480.000000
G1 X22.450000 Y62.450000 Z1.100000 E0.002500000 F480.000000
G1 X22.450000 Y62.950000 Z1.100000 E0.002500000 F480.000000
G1 X22.450000 Y63.450000 Z1.100000 E0.002500000 F480.000000
G1 X22.450000 Y63.950000 Z1.100000 E0.002500000 F480.000000
G1 X22.450000 Y64.450000 Z1.100000 E0.002500000 F480.000000
G1 X22.450000 Y64.950000 Z1.100000 E0.002500000 F480.000000
G1 X22.450000 Y65.450000 Z1.100000 E0.002500000 F480.000000
G1 X22.450000 Y65.950000 Z1.100000 E0.002500000 F480.000000
G1 X22.450000 Y66.450000 Z1.100000 E0.002500000 F480.000000
G1 X22.450000 Y66.950000 Z1.100000 E0.002500000 F480.000000
G1 X22.450000 Y67.450000 Z1.100000 E0.002500000 F480.000000
G1 X22.450000 Y67.950000 Z1.100000 E0.002500000 F480.000000
G1 X22.450000 Y68.450000 Z1.100000 E0.002500000 F480.000000
G1 X22.450000 Y68.450000 Z3.100000 F480.000000
G1 X23.450000 Y56.616667 Z3.100000 F1800.000000
G1 X23.450000 Y56.616667 Z1.100000 F480.000000
G1 X23.928003 Y56.616667 Z1.100000 E0.002390016 F480.000000
G1 X24.406006 Y56.616667 Z1.100000 E0.002390016 F480.000000
G1 X24.884010 Y56.616667 Z1.100000 E0.002390016 F480.000000
G1 X25.362013 Y56.616667 Z1.100000 E0.002390016 F480.000000
G1 X25.362013 Y56.616667 Z3.100000 F480.000000
G1 X24.550000 Y63.283333 Z3.100000 F1800.000000
G1 X24.550000 Y63.283333 Z1.100000 F480.000000
G1 X24.183333 Y63.283333 Z1.100000 E0.001833333 F480.000000
G1 X23.816667 Y63.283333 Z1.100000 E0.001833333 F480.000000
G1 X23.450000 Y63.283333 Z1.100000 E0.001833333 F480.000000
G1 X23.450000 Y63.283333 Z3.000000 F480.000000
