; BIOPRINTER PREVIEW ONLY - SYNTHETIC/UNAPPROVED
; mm, absolute XYZ in centered machine frame; relative calibrated E
G21
G90
M83
G1 X23.450000 Y63.283333 Z3.100000 F480.000000
G1 X22.450000 Y-56.550000 Z3.100000 F1800.000000
G1 X22.450000 Y-56.550000 Z1.100000 F480.000000
G1 X22.892857 Y-56.550000 Z1.100000 E0.002214286 F480.000000
G1 X23.335714 Y-56.550000 Z1.100000 E0.002214286 F480.000000
G1 X23.335714 Y-56.550000 Z3.000000 F480.000000
G1 X23.335714 Y-56.550000 Z0.600000 F480.000000
G1 X23.778571 Y-56.550000 Z0.600000 E0.002214286 F480.000000
G1 X24.221429 Y-56.550000 Z0.600000 E0.002214286 F480.000000
G1 X24.664286 Y-56.550000 Z0.600000 E0.002214286 F480.000000
G1 X24.664286 Y-56.550000 Z3.100000 F480.000000
G1 X24.664286 Y-56.550000 Z1.100000 F480.000000
G1 X25.107143 Y-56.550000 Z1.100000 E0.002214286 F480.000000
G1 X25.550000 Y-56.550000 Z1.100000 E0.002214286 F480.000000
G1 X25.550000 Y-57.032141 Z1.100000 E0.002410706 F480.000000
G1 X25.550000 Y-57.514282 Z1.100000 E0.002410706 F480.000000
G1 X25.550000 Y-57.996424 Z1.100000 E0.002410706 F480.000000
G1 X25.550000 Y-58.478565 Z1.100000 E0.002410706 F480.000000
G1 X25.550000 Y-58.960706 Z1.100000 E0.002410706 F480.000000
G1 X25.550000 Y-59.442847 Z1.100000 E0.002410706 F480.000000
G1 X25.550000 Y-59.924989 Z1.100000 E0.002410706 F480.000000
G1 X25.550000 Y-60.407130 Z1.100000 E0.002410706 F480.000000
G1 X25.550000 Y-60.889271 Z1.100000 E0.002410706 F480.000000
G1 X25.550000 Y-61.371412 Z1.100000 E0.002410706 F480.000000
G1 X25.550000 Y-61.853553 Z1.100000 E0.002410706 F480.000000
G1 X25.550000 Y-62.335695 Z1.100000 E0.002410706 F480.000000
G1 X25.550000 Y-62.817836 Z1.100000 E0.002410706 F480.000000
G1 X25.550000 Y-63.299977 Z1.100000 E0.002410706 F480.000000
G1 X25.550000 Y-63.782118 Z1.100000 E0.002410706 F480.000000
G1 X25.550000 Y-64.264259 Z1.100000 E0.002410706 F480.000000
G1 X25.550000 Y-64.746401 Z1.100000 E0.002410706 F480.000000
G1 X25.550000 Y-65.228542 Z1.100000 E0.002410706 F480.000000
G1 X25.550000 Y-65.710683 Z1.100000 E0.002410706 F480.000000
G1 X25.550000 Y-66.192824 Z1.100000 E0.002410706 F480.000000
G1 X25.550000 Y-66.674966 Z1.100000 E0.002410706 F480.000000
G1 X25.550000 Y-67.157107 Z1.100000 E0.002410706 F480.000000
G1 X25.746447 Y-67.353553 Z1.100000 E0.001389087 F480.000000
G1 X25.942893 Y-67.550000 Z1.100000 E0.001389087 F480.000000
G1 X26.427782 Y-67.550000 Z1.100000 E0.002424444 F480.000000
G1 X26.912671 Y-67.550000 Z1.100000 E0.002424444 F480.000000
G1 X27.397559 Y-67.550000 Z1.100000 E0.002424444 F480.000000
G1 X27.882448 Y-67.550000 Z1.100000 E0.002424444 F480.000000
G1 X28.367337 Y-67.550000 Z1.100000 E0.002424444 F480.000000
G1 X28.852226 Y-67.550000 Z1.100000 E0.002424444 F480.000000
G1 X29.337114 Y-67.550000 Z1.100000 E0.002424444 F480.000000
G1 X29.822003 Y-67.550000 Z1.100000 E0.002424444 F480.000000
G1 X30.306892 Y-67.550000 Z1.100000 E0.002424444 F480.000000
G1 X30.791780 Y-67.550000 Z1.100000 E0.002424444 F480.000000
G1 X31.276669 Y-67.550000 Z1.100000 E0.002424444 F480.000000
G1 X31.761558 Y-67.550000 Z1.100000 E0.002424444 F480.000000
G1 X32.246447 Y-67.550000 Z1.100000 E0.002424444 F480.000000
G1 X32.731335 Y-67.550000 Z1.100000 E0.002424444 F480.000000
G1 X33.216224 Y-67.550000 Z1.100000 E0.002424444 F480.000000
G1 X33.701113 Y-67.550000 Z1.100000 E0.002424444 F480.000000
G1 X34.186001 Y-67.550000 Z1.100000 E0.002424444 F480.000000
G1 X34.670890 Y-67.550000 Z1.100000 E0.002424444 F480.000000
G1 X35.155779 Y-67.550000 Z1.100000 E0.002424444 F480.000000
G1 X35.640668 Y-67.550000 Z1.100000 E0.002424444 F480.000000
G1 X36.125556 Y-67.550000 Z1.100000 E0.002424444 F480.000000
G1 X36.610445 Y-67.550000 Z1.100000 E0.002424444 F480.000000
G1 X37.095334 Y-67.550000 Z1.100000 E0.002424444 F480.000000
G1 X37.580223 Y-67.550000 Z1.100000 E0.002424444 F480.000000
G1 X38.065111 Y-67.550000 Z1.100000 E0.002424444 F480.000000
G1 X38.550000 Y-67.550000 Z1.100000 E0.002424444 F480.000000
G1 X38.550000 Y-68.050000 Z1.100000 E0.002500000 F480.000000
G1 X38.550000 Y-68.550000 Z1.100000 E0.002500000 F480.000000
G1 X38.550000 Y-69.050000 Z1.100000 E0.002500000 F480.000000
G1 X38.550000 Y-69.550000 Z1.100000 E0.002500000 F480.000000
G1 X38.550000 Y-70.050000 Z1.100000 E0.002500000 F480.000000
G1 X38.550000 Y-70.550000 Z1.100000 E0.002500000 F480.000000
G1 X38.550000 Y-71.050000 Z1.100000 E0.002500000 F480.000000
G1 X38.062121 Y-71.050000 Z1.100000 E0.002439394 F480.000000
G1 X37.574242 Y-71.050000 Z1.100000 E0.002439394 F480.000000
G1 X37.086364 Y-71.050000 Z1.100000 E0.002439394 F480.000000
G1 X36.598485 Y-71.050000 Z1.100000 E0.002439394 F480.000000
G1 X36.110606 Y-71.050000 Z1.100000 E0.002439394 F480.000000
G1 X35.622727 Y-71.050000 Z1.100000 E0.002439394 F480.000000
G1 X35.134848 Y-71.050000 Z1.100000 E0.002439394 F480.000000
G1 X34.646970 Y-71.050000 Z1.100000 E0.002439394 F480.000000
G1 X34.159091 Y-71.050000 Z1.100000 E0.002439394 F480.000000
G1 X33.671212 Y-71.050000 Z1.100000 E0.002439394 F480.000000
G1 X33.183333 Y-71.050000 Z1.100000 E0.002439394 F480.000000
G1 X32.695455 Y-71.050000 Z1.100000 E0.002439394 F480.000000
G1 X32.207576 Y-71.050000 Z1.100000 E0.002439394 F480.000000
G1 X31.719697 Y-71.050000 Z1.100000 E0.002439394 F480.000000
G1 X31.231818 Y-71.050000 Z1.100000 E0.002439394 F480.000000
G1 X30.743939 Y-71.050000 Z1.100000 E0.002439394 F480.000000
G1 X30.256061 Y-71.050000 Z1.100000 E0.002439394 F480.000000
G1 X29.768182 Y-71.050000 Z1.100000 E0.002439394 F480.000000
G1 X29.280303 Y-71.050000 Z1.100000 E0.002439394 F480.000000
G1 X28.792424 Y-71.050000 Z1.100000 E0.002439394 F480.000000
G1 X28.304545 Y-71.050000 Z1.100000 E0.002439394 F480.000000
G1 X27.816667 Y-71.050000 Z1.100000 E0.002439394 F480.000000
G1 X27.328788 Y-71.050000 Z1.100000 E0.002439394 F480.000000
G1 X26.840909 Y-71.050000 Z1.100000 E0.002439394 F480.000000
G1 X26.353030 Y-71.050000 Z1.100000 E0.002439394 F480.000000
G1 X25.865152 Y-71.050000 Z1.100000 E0.002439394 F480.000000
G1 X25.377273 Y-71.050000 Z1.100000 E0.002439394 F480.000000
G1 X24.889394 Y-71.050000 Z1.100000 E0.002439394 F480.000000
G1 X24.401515 Y-71.050000 Z1.100000 E0.002439394 F480.000000
G1 X23.913636 Y-71.050000 Z1.100000 E0.002439394 F480.000000
G1 X23.425758 Y-71.050000 Z1.100000 E0.002439394 F480.000000
G1 X22.937879 Y-71.050000 Z1.100000 E0.002439394 F480.000000
G1 X22.450000 Y-71.050000 Z1.100000 E0.002439394 F480.000000
G1 X22.450000 Y-70.550000 Z1.100000 E0.002500000 F480.000000
G1 X22.450000 Y-70.050000 Z1.100000 E0.002500000 F480.000000
G1 X22.450000 Y-69.550000 Z1.100000 E0.002500000 F480.000000
G1 X22.450000 Y-69.050000 Z1.100000 E0.002500000 F480.000000
G1 X22.450000 Y-68.550000 Z1.100000 E0.002500000 F480.000000
G1 X22.450000 Y-68.050000 Z1.100000 E0.002500000 F480.000000
G1 X22.450000 Y-67.550000 Z1.100000 E0.002500000 F480.000000
G1 X22.450000 Y-67.050000 Z1.100000 E0.002500000 F480.000000
G1 X22.450000 Y-66.550000 Z1.100000 E0.002500000 F480.000000
G1 X22.450000 Y-66.050000 Z1.100000 E0.002500000 F480.000000
G1 X22.450000 Y-65.550000 Z1.100000 E0.002500000 F480.000000
G1 X22.450000 Y-65.050000 Z1.100000 E0.002500000 F480.000000
G1 X22.450000 Y-64.550000 Z1.100000 E0.002500000 F480.000000
G1 X22.450000 Y-64.050000 Z1.100000 E0.002500000 F480.000000
G1 X22.450000 Y-63.550000 Z1.100000 E0.002500000 F480.000000
G1 X22.450000 Y-63.050000 Z1.100000 E0.002500000 F480.000000
G1 X22.450000 Y-62.550000 Z1.100000 E0.002500000 F480.000000
G1 X22.450000 Y-62.050000 Z1.100000 E0.002500000 F480.000000
G1 X22.450000 Y-61.550000 Z1.100000 E0.002500000 F480.000000
G1 X22.450000 Y-61.050000 Z1.100000 E0.002500000 F480.000000
G1 X22.450000 Y-60.550000 Z1.100000 E0.002500000 F480.000000
G1 X22.450000 Y-60.050000 Z1.100000 E0.002500000 F480.000000
G1 X22.450000 Y-59.550000 Z1.100000 E0.002500000 F480.000000
G1 X22.450000 Y-59.050000 Z1.100000 E0.002500000 F480.000000
G1 X22.450000 Y-58.550000 Z1.100000 E0.002500000 F480.000000
G1 X22.450000 Y-58.050000 Z1.100000 E0.002500000 F480.000000
G1 X22.450000 Y-57.550000 Z1.100000 E0.002500000 F480.000000
G1 X22.450000 Y-57.050000 Z1.100000 E0.002500000 F480.000000
G1 X22.450000 Y-56.550000 Z1.100000 E0.002500000 F480.000000
G1 X22.450000 Y-56.550000 Z3.100000 F480.000000
G1 X23.450000 Y-68.383333 Z3.100000 F1800.000000
G1 X23.450000 Y-68.383333 Z1.100000 F480.000000
G1 X23.928003 Y-68.383333 Z1.100000 E0.002390016 F480.000000
G1 X24.406006 Y-68.383333 Z1.100000 E0.002390016 F480.000000
G1 X24.884010 Y-68.383333 Z1.100000 E0.002390016 F480.000000
G1 X25.362013 Y-68.383333 Z1.100000 E0.002390016 F480.000000
G1 X25.362013 Y-68.383333 Z3.100000 F480.000000
G1 X24.550000 Y-61.716667 Z3.100000 F1800.000000
G1 X24.550000 Y-61.716667 Z1.100000 F480.000000
G1 X24.183333 Y-61.716667 Z1.100000 E0.001833333 F480.000000
G1 X23.816667 Y-61.716667 Z1.100000 E0.001833333 F480.000000
G1 X23.450000 Y-61.716667 Z1.100000 E0.001833333 F480.000000
G1 X23.450000 Y-61.716667 Z3.000000 F480.000000
