; BIOPRINTER PREVIEW ONLY - SYNTHETIC/UNAPPROVED
; mm, absolute XYZ in centered machine frame; relative calibrated E
G21
G90
M83
G1 X-36.550000 Y-61.716667 Z3.100000 F480.000000
G1 X-37.550000 Y68.450000 Z3.100000 F1800.000000
G1 X-37.550000 Y68.450000 Z1.100000 F480.000000
G1 X-37.107143 Y68.450000 Z1.100000 E0.002214286 F480.000000
G1 X-36.664286 Y68.450000 Z1.100000 E0.002214286 F480.000000
G1 X-36.664286 Y68.450000 Z3.000000 F480.000000
G1 X-36.664286 Y68.450000 Z0.600000 F480.000000
G1 X-36.221429 Y68.450000 Z0.600000 E0.002214286 F480.000000
G1 X-35.778571 Y68.450000 Z0.600000 E0.002214286 F480.000000
G1 X-35.335714 Y68.450000 Z0.600000 E0.002214286 F480.000000
G1 X-35.335714 Y68.450000 Z3.100000 F480.000000
G1 X-35.335714 Y68.450000 Z1.100000 F480.000000
G1 X-34.892857 Y68.450000 Z1.100000 E0.002214286 F480.000000
G1 X-34.450000 Y68.450000 Z1.100000 E0.002214286 F480.000000
G1 X-34.450000 Y67.967859 Z1.100000 E0.002410706 F480.000000
G1 X-34.450000 Y67.485718 Z1.100000 E0.002410706 F480.000000
G1 X-34.450000 Y67.003576 Z1.100000 E0.002410706 F480.000000
G1 X-34.450000 Y66.521435 Z1.100000 E0.002410706 F480.000000
G1 X-34.450000 Y66.039294 Z1.100000 E0.002410706 F480.000000
G1 X-34.450000 Y65.557153 Z1.100000 E0.002410706 F480.000000
G1 X-34.450000 Y65.075011 Z1.100000 E0.002410706 F480.000000
G1 X-34.450000 Y64.592870 Z1.100000 E0.002410706 F480.000000
G1 X-34.450000 Y64.110729 Z1.100000 E0.002410706 F480.000000
G1 X-34.450000 Y63.628588 Z1.100000 E0.002410706 F480.000000
G1 X-34.450000 Y63.146447 Z1.100000 E0.002410706 F480.000000
G1 X-34.450000 Y62.664305 Z1.100000 E0.002410706 F480.000000
G1 X-34.450000 Y62.182164 Z1.100000 E0.002410706 F480.000000
G1 X-34.450000 Y61.700023 Z1.100000 E0.002410706 F480.000000
G1 X-34.450000 Y61.217882 Z1.100000 E0.002410706 F480.000000
G1 X-34.450000 Y60.735741 Z1.100000 E0.002410706 F480.000000
G1 X-34.450000 Y60.253599 Z1.100000 E0.002410706 F480.000000
G1 X-34.450000 Y59.771458 Z1.100000 E0.002410706 F480.000000
G1 X-34.450000 Y59.289317 Z1.100000 E0.002410706 F480.000000
G1 X-34.450000 Y58.807176 Z1.100000 E0.002410706 F480.000000
G1 X-34.450000 Y58.325034 Z1.100000 E0.002410706 F480.000000
G1 X-34.450000 Y57.842893 Z1.100000 E0.002410706 F480.000000
G1 X-34.253553 Y57.646447 Z1.100000 E0.001389087 F480.000000
G1 X-34.057107 Y57.450000 Z1.100000 E0.001389087 F480.000000
G1 X-33.572218 Y57.450000 Z1.100000 E0.002424444 F480.000000
G1 X-33.087329 Y57.450000 Z1.100000 E0.002424444 F480.000000
G1 X-32.602441 Y57.450000 Z1.100000 E0.002424444 F480.000000
G1 X-32.117552 Y57.450000 Z1.100000 E0.002424444 F480.000000
G1 X-31.632663 Y57.450000 Z1.100000 E0.002424444 F480.000000
G1 X-31.147774 Y57.450000 Z1.100000 E0.002424444 F480.000000
G1 X-30.662886 Y57.450000 Z1.100000 E0.002424444 F480.000000
G1 X-30.177997 Y57.450000 Z1.100000 E0.002424444 F480.000000
G1 X-29.693108 Y57.450000 Z1.100000 E0.002424444 F480.000000
G1 X-29.208220 Y57.450000 Z1.100000 E0.002424444 F480.000000
G1 X-28.723331 Y57.450000 Z1.100000 E0.002424444 F480.000000
G1 X-28.238442 Y57.450000 Z1.100000 E0.002424444 F480.000000
G1 X-27.753553 Y57.450000 Z1.100000 E0.002424444 F480.000000
G1 X-27.268665 Y57.450000 Z1.100000 E0.002424444 F480.000000
G1 X-26.783776 Y57.450000 Z1.100000 E0.002424444 F480.000000
G1 X-26.298887 Y57.450000 Z1.100000 E0.002424444 F480.000000
G1 X-25.813999 Y57.450000 Z1.100000 E0.002424444 F480.000000
G1 X-25.329110 Y57.450000 Z1.100000 E0.002424444 F480.000000
G1 X-24.844221 Y57.450000 Z1.100000 E0.002424444 F480.000000
G1 X-24.359332 Y57.450000 Z1.100000 E0.002424444 F480.000000
G1 X-23.874444 Y57.450000 Z1.100000 E0.002424444 F480.000000
G1 X-23.389555 Y57.450000 Z1.100000 E0.002424444 F480.000000
G1 X-22.904666 Y57.450000 Z1.100000 E0.002424444 F480.000000
G1 X-22.419777 Y57.450000 Z1.100000 E0.002424444 F480.000000
G1 X-21.934889 Y57.450000 Z1.100000 E0.002424444 F480.000000
G1 X-21.450000 Y57.450000 Z1.100000 E0.002424444 F480.000000
G1 X-21.450000 Y56.950000 Z1.100000 E0.002500000 F480.000000
G1 X-21.450000 Y56.450000 Z1.100000 E0.002500000 F480.000000
G1 X-21.450000 Y55.950000 Z1.100000 E0.002500000 F480.000000
G1 X-21.450000 Y55.450000 Z1.100000 E0.002500000 F480.000000
G1 X-21.450000 Y54.950000 Z1.100000 E0.002500000 F480.000000
G1 X-21.450000 Y54.450000 Z1.100000 E0.002500000 F480.000000
G1 X-21.450000 Y53.950000 Z1.100000 E0.002500000 F480.000000
G1 X-21.937879 Y53.950000 Z1.100000 E0.002439394 F480.000000
G1 X-22.425758 Y53.950000 Z1.100000 E0.002439394 F480.000000
G1 X-22.913636 Y53.950000 Z1.100000 E0.002439394 F480.000000
G1 X-23.401515 Y53.950000 Z1.100000 E0.002439394 F480.000000
G1 X-23.889394 Y53.950000 Z1.100000 E0.002439394 F480.000000
G1 X-24.377273 Y53.950000 Z1.100000 E0.002439394 F480.000000
G1 X-24.865152 Y53.950000 Z1.100000 E0.002439394 F480.000000
G1 X-25.353030 Y53.950000 Z1.100000 E0.002439394 F480.000000
G1 X-25.840909 Y53.950000 Z1.100000 E0.002439394 F480.000000
G1 X-26.328788 Y53.950000 Z1.100000 E0.002439394 F480.000000
G1 X-26.816667 Y53.950000 Z1.100000 E0.002439394 F480.000000
G1 X-27.304545 Y53.950000 Z1.100000 E0.002439394 F480.000000
G1 X-27.792424 Y53.950000 Z1.100000 E0.002439394 F480.000000
G1 X-28.280303 Y53.950000 Z1.100000 E0.002439394 F480.000000
G1 X-28.768182 Y53.950000 Z1.100000 E0.002439394 F480.000000
G1 X-29.256061 Y53.950000 Z1.100000 E0.002439394 F480.000000
G1 X-29.743939 Y53.950000 Z1.100000 E0.002439394 F480.000000
G1 X-30.231818 Y53.950000 Z1.100000 E0.002439394 F480.000000
G1 X-30.719697 Y53.950000 Z1.100000 E0.002439394 F480.000000
G1 X-31.207576 Y53.950000 Z1.100000 E0.002439394 F480.000000
G1 X-31.695455 Y53.950000 Z1.100000 E0.002439394 F480.000000
G1 X-32.183333 Y53.950000 Z1.100000 E0.002439394 F480.000000
G1 X-32.671212 Y53.950000 Z1.100000 E0.002439394 F480.000000
G1 X-33.159091 Y53.950000 Z1.100000 E0.002439394 F480.000000
G1 X-33.646970 Y53.950000 Z1.100000 E0.002439394 F480.000000
G1 X-34.134848 Y53.950000 Z1.100000 E0.002439394 F480.000000
G1 X-34.622727 Y53.950000 Z1.100000 E0.002439394 F480.000000
G1 X-35.110606 Y53.950000 Z1.100000 E0.002439394 F480.000000
G1 X-35.598485 Y53.950000 Z1.100000 E0.002439394 F480.000000
G1 X-36.086364 Y53.950000 Z1.100000 E0.002439394 F480.000000
G1 X-36.574242 Y53.950000 Z1.100000 E0.002439394 F480.000000
G1 X-37.062121 Y53.950000 Z1.100000 E0.002439394 F480.000000
G1 X-37.550000 Y53.950000 Z1.100000 E0.002439394 F480.000000
G1 X-37.550000 Y54.450000 Z1.100000 E0.002500000 F480.000000
G1 X-37.550000 Y54.950000 Z1.100000 E0.002500000 F480.000000
G1 X-37.550000 Y55.450000 Z1.100000 E0.002500000 F480.000000
G1 X-37.550000 Y55.950000 Z1.100000 E0.002500000 F480.000000
G1 X-37.550000 Y56.450000 Z1.100000 E0.002500000 F480.000000
G1 X-37.550000 Y56.950000 Z1.100000 E0.002500000 F480.000000
G1 X-37.550000 Y57.450000 Z1.100000 E0.002500000 F480.000000
G1 X-37.550000 Y57.950000 Z1.100000 E0.002500000 F480.000000
G1 X-37.550000 Y58.450000 Z1.100000 E0.002500000 F480.000000
G1 X-37.550000 Y58.950000 Z1.100000 E0.002500000 F480.000000
G1 X-37.550000 Y59.450000 Z1.100000 E0.002500000 F480.000000
G1 X-37.550000 Y59.950000 Z1.100000 E0.002500000 F480.000000
G1 X-37.550000 Y60.450000 Z1.100000 E0.002500000 F480.000000
G1 X-37.550000 Y60.950000 Z1.100000 E0.002500000 F480.000000
G1 X-37.550000 Y61.450000 Z1.100000 E0.002500000 F480.000000
G1 X-37.550000 Y61.950000 Z1.100000 E0.002500000 F480.000000
G1 X-37.550000 Y62.450000 Z1.100000 E0.002500000 F480.000000
G1 X-37.550000 Y62.950000 Z1.100000 E0.002500000 F480.000000
G1 X-37.550000 Y63.450000 Z1.100000 E0.002500000 F480.000000
G1 X-37.550000 Y63.950000 Z1.100000 E0.002500000 F480.000000
G1 X-37.550000 Y64.450000 Z1.100000 E0.002500000 F480.000000
G1 X-37.550000 Y64.950000 Z1.100000 E0.002500000 F480.000000
G1 X-37.550000 Y65.450000 Z1.100000 E0.002500000 F480.000000
G1 X-37.550000 Y65.950000 Z1.100000 E0.002500000 F480.000000
G1 X-37.550000 Y66.450000 Z1.100000 E0.002500000 F480.000000
G1 X-37.550000 Y66.950000 Z1.100000 E0.002500000 F480.000000
G1 X-37.550000 Y67.450000 Z1.100000 E0.002500000 F480.000000
G1 X-37.550000 Y67.950000 Z1.100000 E0.002500000 F480.000000
G1 X-37.550000 Y68.450000 Z1.100000 E0.002500000 F480.000000
G1 X-37.550000 Y68.450000 Z3.100000 F480.000000
G1 X-36.550000 Y56.616667 Z3.100000 F1800.000000
G1 X-36.550000 Y56.616667 Z1.100000 F480.000000
G1 X-36.071997 Y56.616667 Z1.100000 E0.002390016 F480.000000
G1 X-35.593994 Y56.616667 Z1.100000 E0.002390016 F480.000000
G1 X-35.115990 Y56.616667 Z1.100000 E0.002390016 F480.000000
G1 X-34.637987 Y56.616667 Z1.100000 E0.002390016 F480.000000
G1 X-34.637987 Y56.616667 Z3.100000 F480.000000
G1 X-35.450000 Y63.283333 Z3.100000 F1800.000000
G1 X-35.450000 Y63.283333 Z1.100000 F480.000000
G1 X-35.816667 Y63.283333 Z1.100000 E0.001833333 F480.000000
G1 X-36.183333 Y63.283333 Z1.100000 E0.001833333 F480.000000
G1 X-36.550000 Y63.283333 Z1.100000 E0.001833333 F480.000000
G1 X-36.550000 Y63.283333 Z3.000000 F480.000000
