; BIOPRINTER PREVIEW ONLY - SYNTHETIC/UNAPPROVED
; mm, absolute XYZ in centered machine frame; relative calibrated E
G21
G90
M83
G1 X20.450000 Y-64.650000 Z3.500000 F1800.000000
G1 X20.450000 Y-64.650000 Z1.100000 F480.000000
G1 X20.450000 Y-64.207143 Z1.100000 E0.002214286 F480.000000
G1 X20.450000 Y-63.764286 Z1.100000 E0.002214286 F480.000000
G1 X20.450000 Y-63.321429 Z1.100000 E0.002214286 F480.000000
G1 X20.450000 Y-62.878571 Z1.100000 E0.002214286 F480.000000
G1 X20.450000 Y-62.435714 Z1.100000 E0.002214286 F480.000000
G1 X20.450000 Y-61.992857 Z1.100000 E0.002214286 F480.000000
G1 X20.450000 Y-61.550000 Z1.100000 E0.002214286 F480.000000
G1 X20.450000 Y-61.550000 Z3.600000 F480.000000
G1 X20.450000 Y-61.550000 Z1.600000 F480.000000
G1 X20.939744 Y-61.550000 Z1.600000 E0.002448718 F480.000000
G1 X21.429487 Y-61.550000 Z1.600000 E0.002448718 F480.000000
G1 X21.919231 Y-61.550000 Z1.600000 E0.002448718 F480.000000
G1 X22.408974 Y-61.550000 Z1.600000 E0.002448718 F480.000000
G1 X22.898718 Y-61.550000 Z1.600000 E0.002448718 F480.000000
G1 X23.388462 Y-61.550000 Z1.600000 E0.002448718 F480.000000
G1 X23.878205 Y-61.550000 Z1.600000 E0.002448718 F480.000000
G1 X24.367949 Y-61.550000 Z1.600000 E0.002448718 F480.000000
G1 X24.857692 Y-61.550000 Z1.600000 E0.002448718 F480.000000
G1 X25.347436 Y-61.550000 Z1.600000 E0.002448718 F480.000000
G1 X25.837179 Y-61.550000 Z1.600000 E0.002448718 F480.000000
G1 X26.326923 Y-61.550000 Z1.600000 E0.002448718 F480.000000
G1 X26.816667 Y-61.550000 Z1.600000 E0.002448718 F480.000000
G1 X26.816667 Y-61.550000 Z3.500000 F480.000000
G1 X26.816667 Y-61.550000 Z1.100000 F480.000000
G1 X27.306410 Y-61.550000 Z1.100000 E0.002448718 F480.000000
G1 X27.306410 Y-61.550000 Z3.500000 F480.000000
G1 X27.306410 Y-61.550000 Z0.600000 F480.000000
G1 X27.796154 Y-61.550000 Z0.600000 E0.002448718 F480.000000
G1 X28.285897 Y-61.550000 Z0.600000 E0.002448718 F480.000000
G1 X28.775641 Y-61.550000 Z0.600000 E0.002448718 F480.000000
G1 X29.265385 Y-61.550000 Z0.600000 E0.002448718 F480.000000
G1 X29.755128 Y-61.550000 Z0.600000 E0.002448718 F480.000000
G1 X30.244872 Y-61.550000 Z0.600000 E0.002448718 F480.000000
G1 X30.734615 Y-61.550000 Z0.600000 E0.002448718 F480.000000
G1 X31.224359 Y-61.550000 Z0.600000 E0.002448718 F480.000000
G1 X31.714103 Y-61.550000 Z0.600000 E0.002448718 F480.000000
G1 X32.203846 Y-61.550000 Z0.600000 E0.002448718 F480.000000
G1 X32.203846 Y-61.550000 Z3.500000 F480.000000
G1 X32.203846 Y-61.550000 Z1.100000 F480.000000
G1 X32.693590 Y-61.550000 Z1.100000 E0.002448718 F480.000000
G1 X33.183333 Y-61.550000 Z1.100000 E0.002448718 F480.000000
G1 X33.673077 Y-61.550000 Z1.100000 E0.002448718 F480.000000
G1 X34.162821 Y-61.550000 Z1.100000 E0.002448718 F480.000000
G1 X34.652564 Y-61.550000 Z1.100000 E0.002448718 F480.000000
G1 X35.142308 Y-61.550000 Z1.100000 E0.002448718 F480.000000
G1 X35.632051 Y-61.550000 Z1.100000 E0.002448718 F480.000000
G1 X36.121795 Y-61.550000 Z1.100000 E0.002448718 F480.000000
G1 X36.611538 Y-61.550000 Z1.100000 E0.002448718 F480.000000
G1 X37.101282 Y-61.550000 Z1.100000 E0.002448718 F480.000000
G1 X37.591026 Y-61.550000 Z1.100000 E0.002448718 F480.000000
G1 X38.080769 Y-61.550000 Z1.100000 E0.002448718 F480.000000
G1 X38.570513 Y-61.550000 Z1.100000 E0.002448718 F480.000000
G1 X39.060256 Y-61.550000 Z1.100000 E0.002448718 F480.000000
G1 X39.550000 Y-61.550000 Z1.100000 E0.002448718 F480.000000
G1 X39.550000 Y-61.550000 Z3.500000 F480.000000
G1 X39.550000 Y-61.550000 Z0.600000 F480.000000
G1 X39.550000 Y-61.992857 Z0.600000 E0.002214286 F480.000000
G1 X39.550000 Y-62.435714 Z0.600000 E0.002214286 F480.000000
G1 X39.550000 Y-62.878571 Z0.600000 E0.002214286 F480.000000
G1 X39.550000 Y-63.321429 Z0.600000 E0.002214286 F480.000000
G1 X39.550000 Y-63.764286 Z0.600000 E0.002214286 F480.000000
G1 X39.550000 Y-64.207143 Z0.600000 E0.002214286 F480.000000
G1 X39.550000 Y-64.650000 Z0.600000 E0.002214286 F480.000000
G1 X39.550000 Y-64.650000 Z3.500000 F480.000000
G1 X39.550000 Y-64.650000 Z1.100000 F480.000000
G1 X39.060256 Y-64.650000 Z1.100000 E0.002448718 F480.000000
G1 X38.570513 Y-64.650000 Z1.100000 E0.002448718 F480.000000
G1 X38.080769 Y-64.650000 Z1.100000 E0.002448718 F480.000000
G1 X37.591026 Y-64.650000 Z1.100000 E0.002448718 F480.000000
G1 X37.101282 Y-64.650000 Z1.100000 E0.002448718 F480.000000
G1 X36.611538 Y-64.650000 Z1.100000 E0.002448718 F480.000000
G1 X36.121795 Y-64.650000 Z1.100000 E0.002448718 F480.000000
G1 X35.632051 Y-64.650000 Z1.100000 E0.002448718 F480.000000
G1 X35.142308 Y-64.650000 Z1.100000 E0.002448718 F480.000000
G1 X34.652564 Y-64.650000 Z1.100000 E0.002448718 F480.000000
G1 X34.162821 Y-64.650000 Z1.100000 E0.002448718 F480.000000
G1 X33.673077 Y-64.650000 Z1.100000 E0.002448718 F480.000000
G1 X33.183333 Y-64.650000 Z1.100000 E0.002448718 F480.000000
G1 X32.693590 Y-64.650000 Z1.100000 E0.002448718 F480.000000
G1 X32.203846 Y-64.650000 Z1.100000 E0.002448718 F480.000000
G1 X32.203846 Y-64.650000 Z3.500000 F480.000000
G1 X32.203846 Y-64.650000 Z0.600000 F480.000000
G1 X31.714103 Y-64.650000 Z0.600000 E0.002448718 F480.000000
G1 X31.224359 Y-64.650000 Z0.600000 E0.002448718 F480.000000
G1 X30.734615 Y-64.650000 Z0.600000 E0.002448718 F480.000000
G1 X30.244872 Y-64.650000 Z0.600000 E0.002448718 F480.000000
G1 X29.755128 Y-64.650000 Z0.600000 E0.002448718 F480.000000
G1 X29.265385 Y-64.650000 Z0.600000 E0.002448718 F480.000000
G1 X28.775641 Y-64.650000 Z0.600000 E0.002448718 F480.000000
G1 X28.285897 Y-64.650000 Z0.600000 E0.002448718 F480.000000
G1 X27.796154 Y-64.650000 Z0.600000 E0.002448718 F480.000000
G1 X27.306410 Y-64.650000 Z0.600000 E0.002448718 F480.000000
G1 X27.306410 Y-64.650000 Z3.500000 F480.000000
G1 X27.306410 Y-64.650000 Z1.100000 F480.000000
G1 X26.816667 Y-64.650000 Z1.100000 E0.002448718 F480.000000
G1 X26.816667 Y-64.650000 Z3.600000 F480.000000
G1 X26.816667 Y-64.650000 Z1.600000 F480.000000
G1 X26.326923 Y-64.650000 Z1.600000 E0.002448718 F480.000000
G1 X25.837179 Y-64.650000 Z1.600000 E0.002448718 F480.000000
G1 X25.347436 Y-64.650000 Z1.600000 E0.002448718 F480.000000
G1 X24.857692 Y-64.650000 Z1.600000 E0.002448718 F480.000000
G1 X24.367949 Y-64.650000 Z1.600000 E0.002448718 F480.000000
G1 X23.878205 Y-64.650000 Z1.600000 E0.002448718 F480.000000
G1 X23.878205 Y-64.650000 Z3.500000 F480.000000
G1 X23.878205 Y-64.650000 Z1.100000 F480.000000
G1 X23.388462 Y-64.650000 Z1.100000 E0.002448718 F480.000000
G1 X23.388462 Y-64.650000 Z3.600000 F480.000000
G1 X23.388462 Y-64.650000 Z1.600000 F480.000000
G1 X22.898718 Y-64.650000 Z1.600000 E0.002448718 F480.000000
G1 X22.408974 Y-64.650000 Z1.600000 E0.002448718 F480.000000
G1 X21.919231 Y-64.650000 Z1.600000 E0.002448718 F480.000000
G1 X21.429487 Y-64.650000 Z1.600000 E0.002448718 F480.000000
G1 X20.939744 Y-64.650000 Z1.600000 E0.002448718 F480.000000
G1 X20.450000 Y-64.650000 Z1.600000 E0.002448718 F480.000000
G1 X20.450000 Y-64.650000 Z3.500000 F480.000000
G1 X35.450000 Y-57.050000 Z3.500000 F1800.000000
G1 X35.450000 Y-57.050000 Z0.600000 F480.000000
G1 X35.450000 Y-56.607143 Z0.600000 E0.002214286 F480.000000
G1 X35.450000 Y-56.164286 Z0.600000 E0.002214286 F480.000000
G1 X35.450000 Y-56.164286 Z3.500000 F480.000000
G1 X35.450000 Y-56.164286 Z1.100000 F480.000000
G1 X35.450000 Y-55.721429 Z1.100000 E0.002214286 F480.000000
G1 X35.450000 Y-55.278571 Z1.100000 E0.002214286 F480.000000
G1 X35.450000 Y-54.835714 Z1.100000 E0.002214286 F480.000000
G1 X35.450000 Y-54.392857 Z1.100000 E0.002214286 F480.000000
G1 X35.450000 Y-53.950000 Z1.100000 E0.002214286 F480.000000
G1 X35.912500 Y-53.950000 Z1.100000 E0.002312500 F480.000000
G1 X36.375000 Y-53.950000 Z1.100000 E0.002312500 F480.000000
G1 X36.837500 Y-53.950000 Z1.100000 E0.002312500 F480.000000
G1 X37.300000 Y-53.950000 Z1.100000 E0.002312500 F480.000000
G1 X37.762500 Y-53.950000 Z1.100000 E0.002312500 F480.000000
G1 X38.225000 Y-53.950000 Z1.100000 E0.002312500 F480.000000
G1 X38.687500 Y-53.950000 Z1.100000 E0.002312500 F480.000000
G1 X39.150000 Y-53.950000 Z1.100000 E0.002312500 F480.000000
G1 X39.150000 Y-53.950000 Z3.500000 F480.000000
G1 X39.150000 Y-53.950000 Z0.600000 F480.000000
G1 X39.150000 Y-54.392857 Z0.600000 E0.002214286 F480.000000
G1 X39.150000 Y-54.835714 Z0.600000 E0.002214286 F480.000000
G1 X39.150000 Y-55.278571 Z0.600000 E0.002214286 F480.000000
G1 X39.150000 Y-55.721429 Z0.600000 E0.002214286 F480.000000
G1 X39.150000 Y-56.164286 Z0.600000 E0.002214286 F480.000000
G1 X39.150000 Y-56.607143 Z0.600000 E0.002214286 F480.000000
G1 X39.150000 Y-57.050000 Z0.600000 E0.002214286 F480.000000
G1 X39.150000 Y-57.050000 Z3.500000 F480.000000
G1 X39.150000 Y-57.050000 Z1.100000 F480.000000
G1 X38.687500 Y-57.050000 Z1.100000 E0.002312500 F480.000000
G1 X38.225000 Y-57.050000 Z1.100000 E0.002312500 F480.000000
G1 X37.762500 Y-57.050000 Z1.100000 E0.002312500 F480.000000
G1 X37.300000 Y-57.050000 Z1.100000 E0.002312500 F480.000000
G1 X36.837500 Y-57.050000 Z1.100000 E0.002312500 F480.000000
G1 X36.375000 Y-57.050000 Z1.100000 E0.002312500 F480.000000
G1 X35.912500 Y-57.050000 Z1.100000 E0.002312500 F480.000000
G1 X35.912500 Y-57.050000 Z3.500000 F480.000000
G1 X35.912500 Y-57.050000 Z0.600000 F480.000000
G1 X35.450000 Y-57.050000 Z0.600000 E0.002312500 F480.000000
G1 X35.450000 Y-57.050000 Z3.500000 F480.000000
G1 X36.450000 Y-55.050000 Z3.500000 F1800.000000
G1 X36.450000 Y-55.050000 Z1.100000 F480.000000
G1 X36.875000 Y-55.050000 Z1.100000 E0.002125000 F480.000000
G1 X37.300000 Y-55.050000 Z1.100000 E0.002125000 F480.000000
G1 X37.725000 Y-55.050000 Z1.100000 E0.002125000 F480.000000
G1 X38.150000 Y-55.050000 Z1.100000 E0.002125000 F480.000000
G1 X38.150000 Y-55.050000 Z3.500000 F480.000000
